Cave_ID	Cave_Name	Cave_Synonyms	Cave_Type	Region	Subregion	Municipality	Settlement	Longitude	Latitude	Altitude	Location_Status	Cave_short_references	Reference_ID	Protection_Status	Cave_Description
1	Spilaio Agiou Ioanni		Natural	Notio Aigaio	Naxos	Naxos & Mikres Kyklades	Irakleia	25.436792625	36.828764758	113	Location known	Petrocheilou 1971b|Petrocheilou 1984	1030|1073	GR4220021 - Nisos Irakleia, Nisoi Makares, Mikros and Megalos Avelas, Nisida Venetiko Irakleias (Special Protection Area): Law 3937/2011 (OGG/Α 60/31.03.2011), Joint Ministerial Decision 50743/2017 (OGG 4432/B/15.12.17)|K783 - Nisos Irakleia [Wildlife Refuge]: OGG 1052/Β/2000	
2	Spilaio Katsampa		Natural	Ionioi Nisoi	Kerkyra	Kerkyra	Strinyla	19.83949339	39.743802197	703	Location known				
3	Spilaio Garzenikou		Natural	Peloponnisos	Arkadia	Tripoli	Kandila	22.39413559	37.774187019	1071	Location known	Petrocheilou 1959	982	GR2530004 - Oros Oligyrtos (Special Area of Conservation): Law 3937/2011 (OGG/Α 60/31.03.2011), Joint Ministerial Decision 50743/2017 (OGG 4432/B/15.12.17)	
4	Spilaio Megali Grava	Bodolekos cave, Höhle am Nordabhang des Pantokratorgebirges, Grotta superiore di Bodolekos, Ano Peristerograva, Peristerograva	Natural	Ionioi Nisoi	Kerkyra	Kerkyra	Loutses	19.890172313	39.77690272	479	Location known	Strouhal 1961|Nikolopoulos & Martzoukos 1957b|Merdenesianos 1969	1164|906|880		
5	Lavrio mine galleries		Artificial	Attiki	Anatoliki Attiki	Lavreotiki	Lavrio	24.038151454	37.713232816	56	Location known			GR3000005 - Sounio - Nisida Patroklou and Paraktia Thalassia Zoni (Special Area of Conservation): Law 3937/2011 (OGG/Α 60/31.03.2011), Joint Ministerial Decision 50743/2017 (OGG 4432/B/15.12.17)	
6	Spilaio Chavara		Natural	Attiki	Anatoliki Attiki	Kropia	Kitsi	23.863218743	37.8543079	137	Location known	Petrocheilos 1953c|Santorinaios 1946	961|1114		
7	Spilaio Kerateas	Spilia Nymphis, Spilaio Nymfon,  Spilaio Panos	Natural	Attiki	Anatoliki Attiki	Lavreotiki	Keratea	23.968713	37.790012	600	Location known	Petrocheilou 1984|Petrocheilos 1952b|Petrocheilos 1956a|Lindberg 1955b	1073|956|964|871		
8	Spilaio Panos		Natural	Attiki	Dytiki Attiki	Fyli	Fyli	23.668380689	38.146667725	684	Location known	Deligiorgi 1982|Deligiorgi-Alexopoulou 1980|Deligiorgi-Alexopoulou 1985a|Lindberg 1955b|Petrocheilos 1952b	756|757|758|871|956	K404 - Dasoktima Tatoiou-Salonikis Loimikou-Synidioktito Dasos Gkoura-Parnithas [Wildlife Refuge]: OGG 446/Β/1988|GR3000001 - Oros Parnitha (Special Protection Area - Special Area of Conservation): Law 3937/2011 (OGG/Α 60/31.03.2011), Joint Ministerial Decision 50743/2017 (OGG 4432/B/15.12.17)	
9	Spilaio Drakotrypa		Natural	Kentriki Makedonia	Thessaloniki	Volvi	Vrasna	23.64808369598057	40.70224759272045	80	Location known			GR1220003 - Stena Rentinas - Evryteri Periochi ­ Spilaio Lakkia kai Rema Neromana (Special Area of Conservation): Law 3937/2011 (OGG/Α 60/31.03.2011), Joint Ministerial Decision 50743/2017 (OGG 4432/B/15.12.17)|GR1220009 - Limnes Koroneias - Volvis, Stena Rentinas and Evryteri Periochi (Special Protection Area): Law 3937/2011 (OGG/Α 60/31.03.2011), Joint Ministerial Decision 50743/2017 (OGG 4432/B/15.12.17)	
10	Spilaio Mavri Trypa		Natural	Anatoliki Makedonia-Thraki	Kavala	Kavala	Zygos	24.393166667	41.020644444	301	Location known				
11	Spilaio Stavrou		Natural	Kentriki Makedonia	Thessaloniki	Volvi	Stavros	23.693498572	40.660421855	22	Location known			GR1220003 - Stena Rentinas - Evryteri Periochi (Special Area of Conservation): Law 3937/2011 (OGG/Α 60/31.03.2011), Joint Ministerial Decision 50743/2017 (OGG 4432/B/15.12.17)	
12	Spilaio Eptamylon		Natural	Kentriki Makedonia	Serres	Serres	Serres	23.59503758304901	41.10438850621062	140	Location known	Ioannou 1967|Petrocheilou 1984	794|1073	K33 - Viros - I.M. Ag. Nikolaou (Serron-Oinousas-Eptamylon) [Wildlife Refuge]: OGG 706/Β/1982|GR1260009 - Koilada Timiou Prodromou-menoikion (Special Protection Area): Law 3937/2011 (OGG/Α 60/31.03.2011), Joint Ministerial Decision 50743/2017 (OGG 4432/B/15.12.17)	
13	Spilaio Agias Paraskevis		Natural	Kriti	Irakleio	Chersonisos	Skoteino	25.297520227	35.30488474	219	Location known	Faure 1985|Ioannou 1970h|Lindberg 1955a|Petrocheilou 1984|Gasparo 2003	768|805|870|1073|1160		
14	Spilaio Katafygi Dirou		Natural	Peloponnisos	Lakonia	Anatoliki Mani	Pyrgos Dirou	22.373974325	36.637894664	54	Location known	Lindberg 1955b|Petrocheilos 1953a|Petrocheilos 1958b|Petrocheilou 1955|Petrocheilou 1984	871|959|972|981|1073	GR2540008 - Notia Mani (Special Protection Area): Law 3937/2011 (OGG/Α 60/31.03.2011), Joint Ministerial Decision 50743/2017 (OGG 4432/B/15.12.17)	
15	Spilaio Milatou		Natural	Kriti	Lasithi	Agios Nikolaos	Milatos	25.578029319	35.308239719	172	Location known	Lindberg 1955a|Petrocheilou 1970f|Petrocheilou 1984|Platakis 1976	870|1025|1073|1103	K876 - Latsidiani Kefala Dimou Neapolis [Wildlife Refuge]: OGG 787/Β/2001	
16	Spilaio Diktaio Antro	Spilaio Psychrou, Diktean cave	Natural	Kriti	Lasithi	Oropedio Lasithiou	Psychro	25.445064069	35.162956852	985	Location known	Lindberg 1955a|Platakis 1973|Platakis 1976|Petrocheilou 1963c|Petrocheilou 1984|Paragamian 1994	870|1101|1103|996|1073|1162	GR4320002 - Dikti: Oropedio Lasithiou, Katharo, Selena, Krasi, Selakano, Chalasmeni Koryfi (Special Area of Conservation): Law 3937/2011 (OGG/Α 60/31.03.2011), Joint Ministerial Decision 50743/2017 (OGG 4432/B/15.12.17)	
17	Spilaio Andiparou	Spilaio Oliarou	Natural	Notio Aigaio	Paros	Antiparos	Antiparos	25.05993627	36.990627941	187	Location known	Petrocheilou 1980a|Petrocheilou 1984	1068|1073		
18	Spilaio Kalampaki		Natural	Notio Aigaio	Paros	Paros	Dryos	25.20794859200001	37.0182	409	Location known	Aliprantis 1962|Petrocheilou 1970g	725|1026		
19	Spilaio Nymfon-Ancient Marble Quarry		Artificial	Notio Aigaio	Paros	Paros	Marathi	25.200586813	37.082371586	193	Location known	Ioannou 1989	839	K716 - Agioi Pantes - Stroumpoula Nisou Parou [Wildlife Refuge]: OGG 1052/Β/2000	
20	Spilaio Za		Natural	Notio Aigaio	Naxos	Naxos & Mikres Kyklades	Filoti	25.497819463	37.035653872	598	Location known	Petrocheilou 1962d|Petrocheilou 1984	992|1073	GR4220026 - Naxos: Ori Anathematistra, Koronos, Mavrovouni, Zas, Viglatouri (Special Protection Area): Law 3937/2011 (OGG/Α 60/31.03.2011), Joint Ministerial Decision 50743/2017 (OGG 4432/B/15.12.17)	
21	Spilaio Katholikou	Spilaio Agiou Ioanni tou Erimiti	Natural	Kriti	Chania	Chania	Chordaki	24.146474552	35.590134238	117	Location known	Lindberg 1955a|Vasilopoulos 1959|Petrocheilou 1984|Petrocheilou 1963b	870|1138|1073|995	K898 - Stavros Chordaki Dimou Akrotiriou [Wildlife Refuge]: OGG 813/Β/2001	
22	Spilaio Agias Sofias		Natural	Kriti	Chania	Kissamos	Topolia	23.684308383	35.41492269	416	Location known	Lindberg 1955a|Petrocheilou 1970e|Petrocheilou 1984|Faure 1955	870|1024|1073|1150	GR4340004 - Elos - Topolia - Sasalos - Agios Dikaios (Special Area of Conservation): Law 3937/2011 (OGG/Α 60/31.03.2011), Joint Ministerial Decision 50743/2017 (OGG 4432/B/15.12.17)	
23	Spilaio Koumarospilios		Natural	Kriti	Chania	Chania	Chordaki	24.146008	35.574955	292	Location known	Vasilopoulos 1959	1138		
24	Spilaio Lavyrinthos Gortinas		Artificial	Kriti	Irakleio	Faistos	Roufas	24.919796528	35.075403471	394	Location known	Petrocheilou 1989b|Petrocheilou 1984|Fournier 1994	1075|1073|773		
25	Spilaio Lera		Natural	Kriti	Chania	Chania	Stavros	24.102443	35.590143	190	Location known	Faure 1961|Vasilopoulos 1959	765|1138	K898 - Stavros Chordaki Dimou Akrotiriou [Wildlife Refuge]: OGG 813/Β/2001	
26	Spilaio Sfentoni Trypa	Sentoni Cave, Spilaio Zonianon	Natural	Kriti	Rethymno	Mylopotamos	Zoniana	24.840262726	35.299624415	668	Location known	Petrocheilou 1984|Petrocheilou 1963f|Gasparo 2003	1073|999|1160		
27	Anonymous cave		Natural	Peloponnisos	NA	NA	NA				Unknown Location				
28	Spilaio Alepotrypa		Natural	Peloponnisos	Lakonia	Anatoliki Mani	Pyrgos Dirou	22.37621622	36.637528236	54	Location known	Petrocheilos 1958a|Petrocheilos 1958b|Petrocheilou 1984	971|972|1073	GR2540008 - Notia Mani (Special Protection Area): Law 3937/2011 (OGG/Α 60/31.03.2011), Joint Ministerial Decision 50743/2017 (OGG 4432/B/15.12.17)	
29	Spilaio Glyfadas Dirou	Spilaio Vlychadas Dirou	Natural	Peloponnisos	Lakonia	Anatoliki Mani	Pyrgos Dirou	22.380630218	36.638385168	8	Location known	Anonymous 1958b|Petrocheilou et al. 1989a|Petrocheilou 1992e|Petrocheilou 1984|Petrocheilou 1975c|Petrocheilou 1974h|Petrocheilos 1951a|Petrocheilos 1958b|Lindberg 1955b|Giannopoulos  1994	730|1085|1082|1073|1060|1057|953|972|871|780	GR2540008 - Notia Mani (Special Protection Area): Law 3937/2011 (OGG/Α 60/31.03.2011), Joint Ministerial Decision 50743/2017 (OGG 4432/B/15.12.17)	
30	Spilaio Sklavounakou		Natural	Peloponnisos	Lakonia	Anatoliki Mani	Pyrgos Dirou	22.37988451	36.623970309	184	Location known			GR2540008 - Notia Mani (Special Protection Area): Law 3937/2011 (OGG/Α 60/31.03.2011), Joint Ministerial Decision 50743/2017 (OGG 4432/B/15.12.17)	
31	Spilaio Chagioti	Spilia tou Chajoti, Chajoti cave, Zygoti	Natural	Ionioi Nisoi	Zakynthos	Zakynthos	Gyri	20.763	37.7956	400	Location known				
32	Spilaio Limnon		Natural	Dytiki Ellada	Achaia	Kalavryta	Kastria	22.140052901	37.959582052	835	Location known	Petrocheilou 1967d|Petrocheilou 1984|Petrocheilou 1974d|Panagiotou 1965	1014|1073|1053|918	GR2320009 - Spilaio Kastrion (Special Area of Conservation): Law 3937/2011 (OGG/Α 60/31.03.2011), Joint Ministerial Decision 50743/2017 (OGG 4432/B/15.12.17)	
33	Mine gallery Skalas Rachoniou		Artificial	Anatoliki Makedonia-Thraki	Kavala	Thasos	Skala Rachoniou	24.610656964	40.77530775	23	Location known				
34	Spilaio Metaxolakka		Natural	Thessalia	Magnisia	Almyros	Pteleos	22.951234284	39.076789546	700	Location known				
35	Spilaio Agias Elenis		Natural	Anatoliki Makedonia-Thraki	Kavala	Kavala	Zygos	24.394577778	41.018027778	301	Location known	Petrocheilou 1964b|Petrocheilou 1984	1001|1073		
36	Spilaio Agias Sofias		Natural	Attiki	Nisoi Attikis	Kythira	Mylopotamos	22.925626992	36.251034069	86	Location known	Papadaki et al. 2006|Petrocheilos 1955|Petrocheilou 1970a|Petrocheilou 1984	919|963|1020|1073		
37	Spilaio Agias Triadas		Natural	Sterea Ellada	Evvoia	Karystos	Karystos	24.41832287	38.043144357	198	Location known	Angelopoulou 1934|Skouras 2000|Zervoudakis 1959|Anonymous 1953	727|1123|1143|1151	GR2420012 - Oros Ochi, Paraktia Zoni and Nisides (Special Protection Area): Law 3937/2011 (OGG/Α 60/31.03.2011), Joint Ministerial Decision 50743/2017 (OGG 4432/B/15.12.17)	
38	Spilaio Drakotrypa		Natural	Anatoliki Makedonia-Thraki	Kavala	Thasos	Panagia	24.731045429	40.73354507	170	Location known				
39	Spilaio Fytidi		Natural	Ionioi Nisoi	Kefalonia	Kefalonia	Karavomylos	20.618040675	38.249175151	82	Location known	Petrocheilou 1969e	1019		
40	Spilaio Katafygi		Natural	Notio Aigaio	Kea-Kythnos	Kythnos	Dryopida	24.430020398	37.381716912	213	Location known	Petrocheilou 1967c|Petrocheilou 1984	1013|1073		
41	Spilaio Kokkalia Trypa		Natural	Thessalia	Magnisia	Almyros	Pteleos	22.973923487	39.074846158	410	Location known				
42	Spilaio Leondariou		Natural	Attiki	Anatoliki Attiki	Paiania	Paiania	23.829842	37.987998	480	Location known	Chatzilazaridis 1979|Lindberg 1955b	746|871	GR3000015 - Oros Ymittos (Special Protection Area): Law 3937/2011 (OGG/Α 60/31.03.2011), Joint Ministerial Decision 50743/2017 (OGG 4432/B/15.12.17)	
43	Spilaio Nymfon	Marmarospilia	Natural	Ionioi Nisoi	Ithaki	Ithaki	Vathy	20.706254373	38.361108763	206	Location known	Petrocheilou 1971h|Petrocheilou 1984	1036|1073		
44	Spilaio Peramatos		Natural	Ipeiros	Ioannina	Ioannina	Perama	20.846480076	39.694948222	486	Location known	Lindberg 1955b|Petrocheilos 1956c|Petrocheilos 1957b|Petrocheilou 1952|Petrocheilou 1984|Petrocheilos 1951	871|966|968|980|1073|1154	GR2130012 - Evryteri Periochi Polis Ioanninon (Special Protection Area): Law 3937/2011 (OGG/Α 60/31.03.2011), Joint Ministerial Decision 50743/2017 (OGG 4432/B/15.12.17)	
45	Spilaio Skoteini		Natural	Sterea Ellada	Evvoia	Kymi - Aliveri	Tharounia	23.972431849	38.509980485	461	Location known	Skouras 2000	1123		
46	Spilaio Sykias		Natural	Thessalia	Magnisia	Almyros	Kofoi	22.709152293	39.083308916	1127	Location known				
47	Spilaio Vredou		Natural	Attiki	Anatoliki Attiki	Dionysos	Stamata	23.909348632	38.151246221	336	Location known	Petrocheilos 1952b	956		
48	Spilaio Monis Kipinas		Natural	Ipeiros	Ioannina	Voreia Tzoumerka	Pramanda	21.13022007	39.567439522	772	Location known	Petrocheilos 1956b	965	GR2130013 - Evryteri Periochi Athamanikon Oreon (Special Protection Area): Law 3937/2011 (OGG/Α 60/31.03.2011), Joint Ministerial Decision 50743/2017 (OGG 4432/B/15.12.17)	
49	Spilaio Kokkinou Vrachou		Natural	Thessalia	Larisa	Tempi	Spilia	22.670717071	39.841221807	726	Location known			GR1420007 - Oros Ossa (Special Protection Area): Law 3937/2011 (OGG/Α 60/31.03.2011), Joint Ministerial Decision 50743/2017 (OGG 4432/B/15.12.17)	
50	Spilaio Nymfolyptou		Natural	Attiki	Anatoliki Attiki	Vari - Voula - Vouliagmeni	Vari	23.801839617	37.858140476	266	Location known	Deligiorgi-Alexopoulou 1980|Deligiorgi-Alexopoulou 1985a|Lindberg 1955b|Petrocheilou 1984	757|758|871|1073	GR3000015 - Oros Ymittos (Special Protection Area): Law 3937/2011 (OGG/Α 60/31.03.2011), Joint Ministerial Decision 50743/2017 (OGG 4432/B/15.12.17)	
51	Spilaio Korykeio Antro		Natural	Sterea Ellada	Fokida	Delfoi	Delfoi	22.521153456	38.515941625	1350	Location known	Deligiorgi-Alexopoulou 1985b|Petrocheilou 1984|Lindberg 1955b	759|1073|871	GR2410002 - Oros Parnassos (Special Protection Area): Law 3937/2011 (OGG/Α 60/31.03.2011), Joint Ministerial Decision 50743/2017 (OGG 4432/B/15.12.17)	Korykeio Antro is the cave from where the first cave animals of Greece have been recorded. From the samples collected by Th. J. Krüper,  Brunner Von Wattenwyl (1861) identified the cave cricket <i>Rhaphidophora cavicola</i> -assigned recently to <i>Troglophilus zoia</i> (Di Russo et al. 2014)- and Schaum (1962) described a new ground-beetle species (<i>Anophthalmus Krueperi</i> = <i>Duvalius krueperi<i>), the first obligate cave-dwelling species recorded in Greece.
52	Spilaio Koutrouli		Natural	Kriti	Chania	Chania	Chordaki	24.166886568	35.558178581	314	Location known	Lindberg 1955a	870		
53	Spilaio Thalassinou		Natural	Anatoliki Makedonia-Thraki	Xanthi	Topeiros	Toxotes	24.768932344	41.093034383	104	Location known	Lindberg 1955b	871	GR1120004 - Stena Nestou (Special Protection Area): Law 3937/2011 (OGG/Α 60/31.03.2011), Joint Ministerial Decision 50743/2017 (OGG 4432/B/15.12.17)	
54	Spilaio Kalamato		Natural	Kriti	Chania	Apokoronas	Vafes	24.17221272297763	35.3588765811724	242	Location known	Platakis 1963b	1098		
55	Spilaio Apano Skalas		Natural	Kentriki Makedonia	Imathia	Naousa	Naousa	22.073811271	40.635572335	290	Location known	Lindberg 1955b|Rémy 1951	871|1110		
56	Spilaio Paparadon		Natural	Kentriki Makedonia	Imathia	Naousa	Naousa	22.071126444	40.639040524	305	Location known	Lindberg 1955b|Rémy 1951	871|1110		
57	Spilaio Kosta Jama		Natural	Dytiki Makedonia	Florina	Prespes	Krystalopigi	21.096810225	40.629166667	1456	Location known				
58	Spilaio Melidoniou	Gerontospilios	Natural	Kriti	Rethymno	Mylopotamos	Melidoni	24.729772936	35.384607388	251	Location known	Faure 1961|Lindberg 1955a|Petrocheilou 1965c|Petrocheilou 1984	765|870|1007|1073		
59	Spilaio Alistratis		Natural	Kentriki Makedonia	Serres	Nea Zichni	Alistrati	24.010826019	41.02720897	124	Location known	Paragamian 1992h|Petrocheilou 1984|Symeonidis et al. 1977	930|1073|1126	K46 - Alistrati-Petroto [Wildlife Refuge]: OGG 754/Β/1996	
60	Spilaio Egklouvis		Natural	Ionioi Nisoi	Lefkada	Lefkada	Egklouvi	20.644145267	38.731101213	700	Unknown exact location			K768 - D.D Karyas, Exantheias, Ag.Ilia, Nikoli Dimou Karyas, Sfakioton, Apollonion kai Ellomenou [Wildlife Refuge]: OGG 170/Β/2003	
61	Cave "Polu Trypes"		Natural	Ionioi Nisoi	Lefkada	Lefkada	Egklouvi	20.645981927	38.732796596	700	Unknown exact location			K768 - D.D Karyas, Exantheias, Ag.Ilia, Nikoli Dimou Karyas, Sfakioton, Apollonion kai Ellomenou [Wildlife Refuge]: OGG 170/Β/2003	
62	Spilaio Kyklopa		Natural	Notio Aigaio	Naxos	Naxos & Mikres Kyklades	Irakleia	25.436811	36.828858	390	Location known			K783 - Nisos Irakleia [Wildlife Refuge]: OGG 1052/Β/2000|GR4220021 - Nisos Irakleia, Nisoi Makares, Mikros and Megalos Avelas, Nisida Venetiko Irakleias (Special Protection Area): Law 3937/2011 (OGG/Α 60/31.03.2011), Joint Ministerial Decision 50743/2017 (OGG 4432/B/15.12.17)	
63	Spilaio Gravolithia		Natural	Ionioi Nisoi	Kerkyra	Kerkyra	Spartyla	19.841645286	39.720635579	372	Location known				
64	Spilaio Karoucha		Natural	Ionioi Nisoi	Lefkada	Lefkada	Syvros	20.638062994	38.669744756	192	Location known				
65	Spilaio Katsibourdou		Natural	Kriti	Lasithi	Siteia	Zakros	26.212482313	35.113061576	327	Location known	Faure 1962	766		
66	Spilaio Katsouri		Natural	Ionioi Nisoi	Kerkyra	Kerkyra	Apolysoi	19.925278	39.742778	170	Location known				
67	Spilaio Mythia Kabathoura	Spilaio Koritsi	Natural	Kriti	Rethymno	Anogeia	Anogeia	24.892416613	35.223528931	1322	Location known			GR4330005 - Oros Idi (Vorizia, Geranoi, Kali Madara) (Special Area of Conservation): Law 3937/2011 (OGG/Α 60/31.03.2011), Joint Ministerial Decision 50743/2017 (OGG 4432/B/15.12.17)	
68	Spilaio Panagias Arkoudiotisas	Arkoudas cave	Natural	Kriti	Chania	Chania	Chordaki	24.143885611	35.588921314	193	Location known	Faure 1955|Vasilopoulos 1959|Lindberg 1955a|Faure 1985	1150|1138|870|768	K898 - Stavros Chordaki Dimou Akrotiriou [Wildlife Refuge]: OGG 813/Β/2001	
69	Spilaio sta Pelekita	Spilaio Sykias Spilios	Natural	Kriti	Lasithi	Siteia	Kato Zakros	26.277851196	35.119938608	115	Location known	Faure 1962|Ioannou 1970g|Petrocheilou 1984|Platakis 1964|Platakis 1976	766|804|1073|1099|1103		
70	Spilaio Nychteridon		Natural	Notio Aigaio	Karpathos	Karpathos	Pigadia	27.181412621	35.531693809	80	Location known	Rathgeber & Jantschke 2005	1108		
71	Spilaio Zoodochou Pigis I		Natural	Notio Aigaio	Thira	Thira	Kamari	25.474722949	36.371381398	189	Location known	Ioannou 1970a|Beron 1985|Di Russo & Rampini 2001|Gasparo 2008	798|1156|1157|1158	GR4220003 - Santorini: Nea and Palia Kameni - Profitis Ilias (Special Area of Conservation): Law 3937/2011 (OGG/Α 60/31.03.2011), Joint Ministerial Decision 50743/2017 (OGG 4432/B/15.12.17)	
72	Spilaio Isvoron		Natural	Kentriki Makedonia	Imathia	Naousa	Naousa	22.099241533	40.63184087	148	Location known	Lindberg 1955b|Rémy 1951	871|1110		
73	Spilaio Kakavoulas	Kakavoula cave, Saligkaros cave	Natural	Attiki	Notios Tomeas Attikis	Kropia	Vari	23.809464	37.864883	300	Location known	Lindberg 1955b|Santorinaios 1949a	871|1115	GR3000015 - Oros Ymittos (Special Protection Area): Law 3937/2011 (OGG/Α 60/31.03.2011), Joint Ministerial Decision 50743/2017 (OGG 4432/B/15.12.17)	
74	Spilaio Kamilari	"Coubbedes"	Natural	Kriti	Irakleio	Malevizi	Tylisos	25.017537726	35.322479503	259	Location known	Platakis 1967|Lindberg 1955a	1100|870		
75	Spilaio Kato Marathospilios		Natural	Kriti	Rethymno	Mylopotamos	Kynigiana	24.69061677	35.316611828	464	Location known	Lindberg 1955a|Petrocheilos 1953d	870|962		
76	Spilaio Kyklopa		Natural	Thessalia	Magnisia	Alonnisos	Gioura island	24.151324682	39.377533656	39	Location known			GR1430005 - Nisia Kyra Panagia, Piperi, Psathoura and Gyro Nisides Agios Georgios, Nisoi Adelfoi, Lechousa, Gaidouronisia (Special Protection Area): Law 3937/2011 (OGG/Α 60/31.03.2011), Joint Ministerial Decision 50743/2017 (OGG 4432/B/15.12.17)	
77	Spilaio Arkoudospilia	Temna pestera	Natural	Kentriki Makedonia	Pella	Almopia	Loutra Loutrakiou	21.908745231	40.97324344	499	Location known	Rémy 1951	1110	GR1240008 - Oros Voras (Special Protection Area): Law 3937/2011 (OGG/Α 60/31.03.2011), Joint Ministerial Decision 50743/2017 (OGG 4432/B/15.12.17)	
78	Spilaio Nerospilia		Natural	Thessalia	Magnisia	Almyros	Kokkotoi	22.734047931	39.028595842	1296	Location known			GR1430006 - Oros Othrys, Vouna Gkouras and Farangi Palaiokerasias (Special Protection Area): Law 3937/2011 (OGG/Α 60/31.03.2011), Joint Ministerial Decision 50743/2017 (OGG 4432/B/15.12.17)	
79	Spilaio Titanospilia		Natural	Thessalia	Magnisia	Almyros	Kofoi	22.704359796	39.082605201	1159	Location known				
80	Spilaio Maroneias	Spilaio Kyklopa Polyfimou	Natural	Anatoliki Makedonia-Thraki	Rodopi	Maroneia - Sapes	Maroneia	25.503620494	40.931397528	176	Location known	Petrocheilou 1970d|Petrocheilou 1984	1023|1073	GR1130008 - Maroneia - Spilaion (Special Area of Conservation): Law 3937/2011 (OGG/Α 60/31.03.2011), Joint Ministerial Decision 50743/2017 (OGG 4432/B/15.12.17)	
81	Caves around Naoussa		Natural	Kentriki Makedonia	Imathia	Naousa	Naousa	22.071314	40.634781	280	Unknown exact location				
82	Spilaio Bujor		Natural	Kentriki Makedonia	Pella	Edessa	Agras	21.98187125	40.785150187	773	Location known	Rémy 1951	1110		
83	Spilaio Kalito		Natural	Kentriki Makedonia	Pella	Edessa	Karydia	21.973645347	40.854303137	693	Location known	Rémy 1951	1110	GR1240008 - Oros Voras (Special Protection Area): Law 3937/2011 (OGG/Α 60/31.03.2011), Joint Ministerial Decision 50743/2017 (OGG 4432/B/15.12.17)	
84	Spilaio Atsiganospilios		Natural	Kriti	Lasithi	Agios Nikolaos	Adrianou	25.617755594	35.204632867	481	Location known	Perdikaki et al. 2006|Petrocheilou 1984|Gasparo 2003	951|1073|1160		
85	Spilaio Fanariotissas		Natural	Notio Aigaio	Naxos	Naxos & Mikres Kyklades	Apirathos	25.511772	37.075605	840	Unknown exact location			K488 - Fanari (Filotiou Naxou) [Wildlife Refuge]: OGG 698/Β/1982|GR4220014 - Kentriki and Notia Naxos: Zas and Vigla Eos Mavrovouni and Thalassia Zoni (ormos Karades - Ormos Moutsounas) (Special Area of Conservation): Law 3937/2011 (OGG/Α 60/31.03.2011), Joint Ministerial Decision 50743/2017 (OGG 4432/B/15.12.17)	
86	Spilaio Koutouki		Natural	Attiki	Anatoliki Attiki	Paiania	Paiania	23.828849332	37.945973089	502	Location known	Petrocheilou 1984|Sarris 1934|Zervoudakis 1962	1073|1117|1144	GR3000015 - Oros Ymittos (Special Protection Area): Law 3937/2011 (OGG/Α 60/31.03.2011), Joint Ministerial Decision 50743/2017 (OGG 4432/B/15.12.17)	
87	Spilaio Stylokamara		Natural	Notio Aigaio	Karpathos	Kasos	Agia Marina	26.900138139	35.396603417	230	Location known	Rathgeber & Jantschke 2005	1108	GR4210028 - Nisos Kasos and Symplegma Kasonision (Special Protection Area): Law 3937/2011 (OGG/Α 60/31.03.2011), Joint Ministerial Decision 50743/2017 (OGG 4432/B/15.12.17)	
88	Spilaio Voudli		Natural	Kentriki Makedonia	Pella	Edessa	Edessa	22.056271024	40.805010188	264	Location known	Lindberg 1955b|Rémy 1951	871|1110		
89	Spilaio Vreikou		Natural	Kriti	Lasithi	Ierapetra	Pefkoi	25.999376863	35.083444322	571	Location known	Georgiakakis et al. 2006	776		
90	Spilaio Chonos Sarchou	"Grotte de Sarkhos"	Natural	Kriti	Irakleio	Malevizi	Sarchos	24.985026892	35.220993982	451	Location known	Zervoudakis 1963|Lindberg 1955a	1145|870		
91	Spilaio Dimitras Melainas		Natural	Dytiki Ellada	Ileia	Zacharo	Stomio	21.819629446	37.396736191	206	Location known				
92	Spilaio Kontylos		Natural	Sterea Ellada	Fokida	Delfoi	Ano Polydrosos	22.55	38.613333333	741	Location known				
93	Spilaio Agiou Athanasiou		Natural	Sterea Ellada	Fokida	Delfoi	Prosilio	22.325555556	38.590277778	1205	Location known			GR2450002 - Oros Gkiona (Special Area of Conservation): Law 3937/2011 (OGG/Α 60/31.03.2011), Joint Ministerial Decision 50743/2017 (OGG 4432/B/15.12.17)	
94	Spilaio Neraidospilia		Natural	Sterea Ellada	Fokida	Delfoi	Vargiani	22.423611	38.622222	1300	Location known			GR2410002 - Oros Parnassos (Special Protection Area): Law 3937/2011 (OGG/Α 60/31.03.2011), Joint Ministerial Decision 50743/2017 (OGG 4432/B/15.12.17)	
95	Spilaio Anemotrypa		Natural	Ipeiros	Ioannina	Voreia Tzoumerka	Pramanda	21.086327444	39.513308868	882	Location known	Petrocheilou 1961a|Petrocheilou 1977|Petrocheilou 1984	985|1063|1073	GR2130013 - Evryteri Periochi Athamanikon Oreon (Special Protection Area): Law 3937/2011 (OGG/Α 60/31.03.2011), Joint Ministerial Decision 50743/2017 (OGG 4432/B/15.12.17)	
96	Spilaio Tymfis I		Natural	Ipeiros	Ioannina	Zagori	Tsepelovo	20.799954	39.903916	1500	Unknown exact location	Bonzano & Calandri 1984	1159	GR2130009 - Oros Tymfi (Gkamila) (Special Protection Area): Law 3937/2011 (OGG/Α 60/31.03.2011), Joint Ministerial Decision 50743/2017 (OGG 4432/B/15.12.17)	
97	Spilaio Koufovounou		Natural	Anatoliki Makedonia-Thraki	Evros	Didymoteicho	Koufovouno	26.454263536	41.35314398	35	Location known	Ioannou 1970f	803	GR1110005 - Vouna Evrou - spilaia Didymoteichou kai Kefalovounou (Special Area of Conservation): Law 3937/2011 (OGG/Α 60/31.03.2011), Joint Ministerial Decision 50743/2017 (OGG 4432/B/15.12.17)	It is not clear whether the Chiropteran records of Niethamer (1974) and  Kock (1974) are assigned to the cave of Koufovouno or the cave of  Didymoteicho.
98	Spilaio Aera		Natural	Ipeiros	Trikala	Pyli	Ano Paliokarya	21.498440366	39.409764702	758	Location known	Petrocheilou 1961d	988		
99	Spilaio Megalo Spilaio		Natural	Dytiki Ellada	Aitoloakarnania	Aktio - Vonitsa	Monastiraki	20.956194444	38.768361111	1054	Location known				
100	Spilaio Afantou	Spilaio Paradeisos	Natural	Notio Aigaio	Rodos	Rodos	Afantou	28.164350413	36.293955776	42	Location known				
101	Spilaio Ellinospilios		Natural	Kriti	Chania	Platanias	Afrata	23.777063726	35.582010089	30	Location known	Lindberg 1955a|Petrocheilos 1952d	870|958	GR4340003 - Chersonisos Rodopou - Paralia Maleme (Special Area of Conservation): Law 3937/2011 (OGG/Α 60/31.03.2011), Joint Ministerial Decision 50743/2017 (OGG 4432/B/15.12.17)	
102	Spilaio Chrysopigis	Nasioutsik	Natural	Kentriki Makedonia	Serres	Serres	Chrysopigi	23.539695	41.149409	92	Location known	Lindberg 1955b	871		
103	Spilaio Rachi I		Natural	Attiki	Voreios Tomeas Attikis	Agia Paraskevi	Agia Paraskevi	23.835617003	38.001260182	341	Location known	Lindberg 1955b	871		
104	Spilaio Mayer		Natural	Sterea Ellada	Fokida	Delfoi	Stromi	22.245277778	38.681944444	1399	Location known			K337 - Lefkaditiou (Sykeas) [Wildlife Refuge]: OGG 540/Β/1986|GR2450007 - Koryfes Orous Gkiona, Charadra Reka, Lazorema and Vathia Lakka (Special Protection Area): Law 3937/2011 (OGG/Α 60/31.03.2011), Joint Ministerial Decision 50743/2017 (OGG 4432/B/15.12.17)	
105	Spilaio Pataragkou Trypa		Natural	Dytiki Makedonia	Kastoria	Kastoria	Kastoria	21.281180699	40.514405725	801	Location known	Lindberg 1955b|Pallikaropoulos 1970	871|916	K112 - Limni-Vouno Kastorias [Wildlife Refuge]: OGG 717/Β/1997|GR1320003 - Limni Orestias (Kastorias) (Special Protection Area): Law 3937/2011 (OGG/Α 60/31.03.2011), Joint Ministerial Decision 50743/2017 (OGG 4432/B/15.12.17)	
106	Spilaio Drakou	"Grotte Manthos"	Natural	Dytiki Makedonia	Kastoria	Kastoria	Kastoria	21.284678233	40.505446992	647	Location known	Nikolopoulos 1954|Lindberg 1955b|Zervoudakis 1964a|Vasilopoulos 1958|Petrocheilou 1984|Pallikaropoulos 1969	907|871|1146|1137|1073|915	GR1320003 - Limni Orestias (Kastorias) (Special Protection Area): Law 3937/2011 (OGG/Α 60/31.03.2011), Joint Ministerial Decision 50743/2017 (OGG 4432/B/15.12.17)|K112 - Limni-Vouno Kastorias [Wildlife Refuge]: OGG 717/Β/1997	
107	Spilaio Agias Triadas Tzagkarolon		Natural	Kriti	Chania	Chania	Chordaki	24.135568793	35.561072741	88	Location known	Lindberg 1955a	870		
108	Spilaio Foli Spilios		Natural	Kriti	Chania	Platanias	Afrata	23.771430139	35.590723424	170	Location known	Lindberg 1955a	870	GR4340003 - Chersonisos Rodopou - Paralia Maleme (Special Area of Conservation): Law 3937/2011 (OGG/Α 60/31.03.2011), Joint Ministerial Decision 50743/2017 (OGG 4432/B/15.12.17)	
109	Spilaio Kamilari IΙ		Natural	Kriti	Irakleio	Malevizi	Tylisos	25.017579187	35.323104671	279	Location known	Lindberg 1955a	870		
110	Spilaio Megalo Katofygi		Natural	Kriti	Lasithi	Siteia	Agios Georgios	26.054018534	35.129434671	510	Location known	Lindberg 1955a|Platakis 1964	870|1099		
111	Spilaio Mikri Grava		Natural	Ionioi Nisoi	Kerkyra	Kerkyra	Loutses	19.891284457	39.781547821	341	Location known				
112	Spilaio Mylou Katsouridi		Natural	Kriti	Rethymno	Mylopotamos	Angeliana	24.671555556	35.408611111	32	Location known	Lindberg 1955a	870		
113	Spilaio Neraidospilios 	Spilaio Eileithyias	Natural	Kriti	Irakleio	Chersonisos	Karteros	25.20543251	35.324541649	75	Location known	Lindberg 1955a|Petrocheilou 1984	870|1073		
114	Spilaio Spiliara Almyrou		Natural	Kriti	Irakleio	Malevizi	Gazi	25.046966961	35.33278345	47	Location known	Brunet 1994|Lindberg 1955a	740|870	K705 - Almyros potamos – Keri Dimon Gaziou kai Tylissou [Wildlife Refuge]: OGG 680/Β/2002	
115	Spilaio Palaiokastritsas		Natural	Ionioi Nisoi	Kerkyra	Kerkyra	Palaiokastritsa	19.707255606	39.677813085	107	Location known				
116	Spilaio Katafygi		Natural	Peloponnisos	Messinia	Dytiki Mani	Agios Dimitrios	22.297459518	36.802884215	12	Location known	Ioannou 1973d|Ioannou 1975e|Lindberg 1955b|Petrocheilos 1953a|Petrocheilou 1984	820|832|871|959|1073		
117	Spilaio Evripidi	Spilaio Peristerion, Spilaio Konchi mt	Natural	Attiki	Nisoi Attikis	Salamina	Peristeria	23.452250176	37.882256128	121	Location known	Lindberg 1955b	871		
118	Spilaio Maara		Natural	Anatoliki Makedonia-Thraki	Drama	Prosotsani	Aggitis	23.893834738	41.219924918	135	Location known	Lindberg 1955b|Petrocheilos 1952a|Petrocheilou 1984	871|955|1073	Modified: GR1150005 - Koryfes Orous Pangaio (Special Area of Conservation): Law 3937/2011 (OGG/Α 60/31.03.2011), Joint Ministerial Decision 50743/2017 (OGG 4432/B/15.12.17)	
119	Spilaio Folia Drakou		Natural	Anatoliki Makedonia-Thraki	Drama	Kato Nevrokopi	Potamoi	24.091014	41.431119	420	Location known			GR1140008 - Kentriki Rodopi and Koilada Nestou (Special Protection Area): Law 3937/2011 (OGG/Α 60/31.03.2011), Joint Ministerial Decision 50743/2017 (OGG 4432/B/15.12.17)	
120	Varathro Trypa Pachnis	Raevitsa 1 (Dupkata)	Natural	Anatoliki Makedonia-Thraki	Xanthi	Mykis	Pachni	24.896659	41.300718	680	Location known				
121	Varathro  Pachnis	Raevitsa 2	Natural	Anatoliki Makedonia-Thraki	Xanthi	Mykis	Pachni	24.896285	41.299761	600	Location known				
123	Spilaio Spiliara		Artificial	Kriti	Irakleio	Irakleio	Agia Eirini (Spilia)	25.164280408	35.278013854	152	Location known			K859 - Oros Giouchta kai Farangi Agias Eirinis Dimos Archanon [Wildlife Refuge]: OGG 927/Β/2002	
124	Spilaio Idaio Antro	Hohle Zeus	Natural	Kriti	Rethymno	Anogeia	Anogeia	24.828913714	35.208207389	1518	Location known	Petrocheilou 1984	1073	GR4330009 - Oros Psiloreitis (notiodytiko Tmima) (Special Protection Area): Law 3937/2011 (OGG/Α 60/31.03.2011), Joint Ministerial Decision 50743/2017 (OGG 4432/B/15.12.17)	
125	Anonymous cave II at Kapnofyto		Natural	Kentriki Makedonia	Serres	Sintiki	Kapnofyto	23.480738877	41.294872003	332	Location known	Lindberg 1955b	871		
126	Spilaio Drakoneras		Natural	Attiki	Anatoliki Attiki	Marathonas	Kato Souli	24.038018787	38.160521627	78	Location known	Lindberg 1955b	871	GR3000016 - Ygrotopos Schinia (Special Protection Area): Law 3937/2011 (OGG/Α 60/31.03.2011), Joint Ministerial Decision 50743/2017 (OGG 4432/B/15.12.17)	
127	Spilaio Kyklopon		Natural	Anatoliki Makedonia-Thraki	Kavala	Pangaio	Nea Irakleitsa	24.334262931	40.859274571	85	Location known	Lindberg 1955b	871		
128	Spilaio Ntaveli	Daveli cave, "Spilia Paveli", Spilaio Amomon	Natural	Attiki	Voreios Tomeas Attikis	Penteli	Nea Penteli	23.876924866	38.070702483	712	Location known	Lindberg 1955b|Anonymous 1935	871|1153		
129	Spilaio Plaka III		Natural	Peloponnisos	Lakonia	Anatoliki Mani	Areopoli	22.366794165	36.678119205	60	Location known	Lindberg 1955b	871	GR2540008 - Notia Mani (Special Protection Area): Law 3937/2011 (OGG/Α 60/31.03.2011), Joint Ministerial Decision 50743/2017 (OGG 4432/B/15.12.17)	
130	Spilaio Siassiaki		Natural	Kentriki Makedonia	Imathia	Naousa	Naousa	22.069173005	40.640712425	231	Location known	Lindberg 1955b	871		
131	Spilaio Trachilas	Trimesi	Natural	Peloponnisos	Messinia	Dytiki Mani	Trachila	22.323044153	36.751620283	82	Location known	Lindberg 1955b	871	GR2550006 - Oros Taygetos ­ Spilaio Trachilas - Spilaio Vatsinidi (Special Area of Conservation): Law 3937/2011 (OGG/Α 60/31.03.2011), Joint Ministerial Decision 50743/2017 (OGG 4432/B/15.12.17)	
132	Spilaio Nymfon	St’Tzarn Trypa	Natural	Thessalia	Larisa	Tempi	Spilia	22.641033364	39.820853854	1119	Location known			GR1420007 - Oros Ossa (Special Protection Area): Law 3937/2011 (OGG/Α 60/31.03.2011), Joint Ministerial Decision 50743/2017 (OGG 4432/B/15.12.17)	
133	Spilaio Kaiadas		Natural	Peloponnisos	Lakonia	Sparti	Trypi	22.34059649	37.095993259	526	Location known			GR2550009 - Oros Taygetos - Lagkada Trypis (Special Protection Area): Law 3937/2011 (OGG/Α 60/31.03.2011), Joint Ministerial Decision 50743/2017 (OGG 4432/B/15.12.17)	
134	Spilaio Agiou Antoniou		Natural	Kriti	Rethymno	Amari	Patsos	24.570475721	35.255745373	368	Location known			GR4330004 - Prassano Farangi - Patsos - Sfakoryako Rema - Paralia Rethymnou and Ekvoli Geropotamou, Akr. Lianos Kavos - Perivolia (Special Area of Conservation): Law 3937/2011 (OGG/Α 60/31.03.2011), Joint Ministerial Decision 50743/2017 (OGG 4432/B/15.12.17)	
135	Spilaio Petralonon		Natural	Kentriki Makedonia	Chalkidiki	Nea Propontida	Petralona	23.167648293	40.373279038	323	Location known	Kanellis 1962|Petrocheilos 1960|Petrocheilou 1962a|Petrocheilou 1964a|Petrocheilou 1972i|Petrocheilou 1984	842|976|989|1000|1045|1073	K820 - Petralona - Krini sti thesi Katsika Dimou Triglias [Wildlife Refuge]: OGG 570/Β/2001	
136	Spilaio Tzani Spilios		Natural	Kriti	Chania	Platanias	Lakkoi	23.907612267	35.349320181	1056	Location known	Nikolopoulos 1961|Petrocheilou et al. 1976|Anonymous 1965	908|1083|1155	GR4340008 - Lefka Ori and Paraktia Zoni (Special Area of Conservation): Law 3937/2011 (OGG/Α 60/31.03.2011), Joint Ministerial Decision 50743/2017 (OGG 4432/B/15.12.17)	
137	Spilaio Graspilaia		Natural	Sterea Ellada	Evvoia	Kymi - Aliveri	Oktonia	24.19120277800001	38.5116	423	Location known	Skouras 2000	1123	K360 - Oreinos Ogkos (Achladeris-Oktonias-Avlonariou) [Wildlife Refuge]: OGG 499/Β/1988	
138	Spilaio Katelanrachi		Natural	Sterea Ellada	Evvoia	Dirfys - Messapies	Lamari	23.90529498300001	38.647748256	313	Location known	Skouras 2000	1123		
139	Spilaio Pigi Nymfis		Natural	Sterea Ellada	Evvoia	Dirfys - Messapies	Makrykapa	23.756706	38.625628	400	Unknown exact location	Skouras 2000|Kanellis 1934	1123|841		
140	Spilaio Arkalospilios		Natural	Kriti	Chania	Chania	Chordaki	24.159951165	35.559354991	202	Location known				
141	Spilaio Panagias Kakoperatianis		Natural	Voreio Aigaio	Samos	Samos	Kosmadaioi	26.646019847	37.749570446	617	Location known	Kirdis & Papadopoulos 2000|Petrocheilou 1984|Petrocheilos 1952e	847|1073|1152	GR4120008 - Samos: Oros Kerkis (Special Protection Area): Law 3937/2011 (OGG/Α 60/31.03.2011), Joint Ministerial Decision 50743/2017 (OGG 4432/B/15.12.17)	
142	Spilaio Profiti Ilia		Natural	Thessalia	Larisa	Tempi	Ampelakia	22.57146	39.862397	587	Location known			GR1420007 - Oros Ossa (Special Protection Area): Law 3937/2011 (OGG/Α 60/31.03.2011), Joint Ministerial Decision 50743/2017 (OGG 4432/B/15.12.17)	
143	Spilaio Agiou Nikolaou		Natural	Dytiki Makedonia	Kastoria	Kastoria	Kastoria	21.28557994	40.505501777	644	Location known	Lindberg 1955b	871	K112 - Limni-Vouno Kastorias [Wildlife Refuge]: OGG 717/Β/1997|GR1320003 - Limni Orestias (Kastorias) (Special Protection Area): Law 3937/2011 (OGG/Α 60/31.03.2011), Joint Ministerial Decision 50743/2017 (OGG 4432/B/15.12.17)	
144	Spilaio Raos tou Choutra	Futra Raos (Riedel, 1981), Phutra to Nao (Riedel, 1981)	Natural	Voreio Aigaio	Samos	Ikaria	Petropoulio	26.15525749290598	37.59228535506044	366	Location known				
145	Spilaio Pozzo A10		Natural	Ipeiros	Arta	Kentrika Tzoumerka	Drosopigi (Voulgareli)	21.181081583	39.392915998	1553	Location known	Bonzano & Calandri 1984	1159	GR2130013 - Evryteri Periochi Athamanikon Oreon (Special Protection Area): Law 3937/2011 (OGG/Α 60/31.03.2011), Joint Ministerial Decision 50743/2017 (OGG 4432/B/15.12.17)	
146	Spilaio Pozzo A17		Natural	Ipeiros	Arta	Kentrika Tzoumerka	Drosopigi (Voulgareli)	21.179668384	39.392910639	1571	Location known	Bonzano & Calandri 1984	1159	GR2130013 - Evryteri Periochi Athamanikon Oreon (Special Protection Area): Law 3937/2011 (OGG/Α 60/31.03.2011), Joint Ministerial Decision 50743/2017 (OGG 4432/B/15.12.17)	
147	Spilaio Pozzo A7		Natural	Ipeiros	Arta	Kentrika Tzoumerka	Drosopigi (Voulgareli)	21.180426081	39.392175311	1553	Location known	Bonzano & Calandri 1984	1159	GR2130013 - Evryteri Periochi Athamanikon Oreon (Special Protection Area): Law 3937/2011 (OGG/Α 60/31.03.2011), Joint Ministerial Decision 50743/2017 (OGG 4432/B/15.12.17)	
148	Spilaio Geraniou		Natural	Kriti	Rethymno	Rethymno	Gerani	24.407853106	35.35857118	27	Location known	Makris 1969|Petrocheilou 1980b|Petrocheilou 1984	874|1069|1073		
149	Varathro Megalos Votsos		Natural	Voreio Aigaio	Samos	Fournon Korseon	Fournoi	26.48612765	37.583166474	238	Location known	Paragamian 2006	943	GR4120006 - Nisos Fournoi and Nisides Thymaina, Alatsonisi, Thymainaki, Strongylo, Plaka, Makronisi, Mikros and Megalos Anthropofagos, Agios Minas (Special Protection Area): Law 3937/2011 (OGG/Α 60/31.03.2011), Joint Ministerial Decision 50743/2017 (OGG 4432/B/15.12.17)	
150	Military trench (Abri)		Natural	Kentriki Makedonia	Serres	Sintiki	Sidirokastro	23.403894243	41.253328962	127	Location known			GR1260007 - Ori Vrontous - Lailias - Epimikes - spilaia Zesta Nera kai Katarrakton (Special Area of Conservation): Law 3937/2011 (OGG/Α 60/31.03.2011), Joint Ministerial Decision 50743/2017 (OGG 4432/B/15.12.17)	
151	Spilaio Fylakis		Natural	Thessalia	Magnisia	Almyros	Fylaki	22.53646321200001	39.255409786	246	Location known				
152	Spilaio Drakotrypia	Drakospilia, spilaio Reas	Natural	Peloponnisos	Arkadia	Gortynia	Vytina	22.209222043	37.666741225	1448	Location known			GR2520001 - Oros Mainalo (Special Area of Conservation): Law 3937/2011 (OGG/Α 60/31.03.2011), Joint Ministerial Decision 50743/2017 (OGG 4432/B/15.12.17)	
153	Spilaio Monis Mavriotisas	Goloubintsa trypa, Troû de Goloubintsa	Natural	Dytiki Makedonia	Kastoria	Kastoria	Kastoria	21.292288036	40.510558075	645	Location known	Lindberg 1955b	871	GR1320003 - Limni Orestias (Kastorias) (Special Protection Area): Law 3937/2011 (OGG/Α 60/31.03.2011), Joint Ministerial Decision 50743/2017 (OGG 4432/B/15.12.17)|K112 - Limni-Vouno Kastorias [Wildlife Refuge]: OGG 717/Β/1997	
154	Spilaia Kerkyras		Natural	Ionioi Nisoi	Kerkyra	Kerkyra	NA				Unknown Location				
155	Varathro Provatina		Natural	Ipeiros	Ioannina	Zagori	Papigko	20.74574	39.955704	1855	Location known			GR2130009 - Oros Tymfi (Gkamila) (Special Protection Area): Law 3937/2011 (OGG/Α 60/31.03.2011), Joint Ministerial Decision 50743/2017 (OGG 4432/B/15.12.17)	
156	Spilaio Agias Triadas		Natural	Voreio Aigaio	Samos	Samos	Kallithea	26.603161079	37.727789146	870	Location known	Petrocheilou 1984|Petrocheilos 1952e	1073|1152	GR4120008 - Samos: Oros Kerkis (Special Protection Area): Law 3937/2011 (OGG/Α 60/31.03.2011), Joint Ministerial Decision 50743/2017 (OGG 4432/B/15.12.17)	
157	Spilaio Ellinokamara		Natural	Notio Aigaio	Karpathos	Kasos	Agia Marina	26.904093528	35.402765942	130	Location known	Rathgeber & Jantschke 2005|Sakellarakis 1985	1108|1111	GR4210001 - Kasos and Kasonisia - Evryteri Thalassia Periochi (Special Area of Conservation): Law 3937/2011 (OGG/Α 60/31.03.2011), Joint Ministerial Decision 50743/2017 (OGG 4432/B/15.12.17)	
158	Spilaio Panagias Spilianis		Natural	Voreio Aigaio	Samos	Samos	Pythagorio	26.937227504	37.695724332	125	Location known	Petrocheilou 1984|Petrocheilos 1952e|Kirdis & Papadopoulos 2000	1073|1152|847		
159	Cave south of Pigadia		Natural	Notio Aigaio	Karpathos	Karpathos	Pigadia	27.213868	35.498441	100	Unknown exact location				
160	Spilaio Tzetze Trypa	Spilaio Kasoli	Natural	Voreio Aigaio	Samos	Samos	Kosmadaioi	26.665707356	37.762669104	495	Location known	Kirdis & Papadopoulos 2000|Petrocheilos 1952e	847|1152	GR4120008 - Samos: Oros Kerkis (Special Protection Area): Law 3937/2011 (OGG/Α 60/31.03.2011), Joint Ministerial Decision 50743/2017 (OGG 4432/B/15.12.17)	
161	Spilaio Megali Spilia		Natural	Ionioi Nisoi	Zakynthos	Zakynthos	Gyri	20.756731	37.798378	500	Location known	Zelilidis 1994	1142		
162	Spilaio Briba		Natural	Ionioi Nisoi	Zakynthos	Zakynthos	Gyri	20.757699	37.799181	500	Unknown exact location				
163	Subterranean passages of the ancient city of Rhodes		Natural	Notio Aigaio	Rodos	Rodos	Rodos	28.222442	36.443258	25	Location known				
164	Spilaia Rentinas		Artificial	Kentriki Makedonia	Thessaloniki	Volvi	Rentina	23.6181470634624	40.65985941918815	59	Location known	Strinati 1959	1163	GR1220009 - Limnes Koroneias - Volvis, Stena Rentinas and Evryteri Periochi (Special Protection Area): Law 3937/2011 (OGG/Α 60/31.03.2011), Joint Ministerial Decision 50743/2017 (OGG 4432/B/15.12.17)|K735 - Madytou, Apollonias, Limnis Volvis, Ekvoles Rycheiou Potamou Dimon Apollonias, Ag. Georgiou kai Rentinas [Wildlife Refuge]: OGG 810/Β/2001	
165	Spilaio Agiou Galaktos		Natural	Voreio Aigaio	Chios	Chios	Agio Gala	25.860988835	38.562377083	172	Location known	Petrocheilou 1971a|Petrocheilou 1984	1029|1073	K905 - Ag. Galaktos Dimou Amanis [Wildlife Refuge]: OGG 1059/Β/2006	
166	Spilaio Anthropograva	"Grava Khmatia"	Natural	Ionioi Nisoi	Kerkyra	Kerkyra	Klimatia	19.7868	39.7431	256	Location known	Ioannou 1972c	814		
167	Spilaio Thergiospilios		Natural	Kriti	Lasithi	Ierapetra	Kavousi	25.837445	35.138238	50	Location known	Platakis 1975|Platakis 1976	1102|1103	GR4320005 - Oros Thryptis and Gyro Periochi (Special Area of Conservation): Law 3937/2011 (OGG/Α 60/31.03.2011), Joint Ministerial Decision 50743/2017 (OGG 4432/B/15.12.17)	
168	Spilaio Petala		Natural	Ionioi Nisoi	Kefalonia	Kefalonia	Petalas island	21.09465444	38.415733896	146	Location known			GR2310015 - Delta Acheloou, Limnothalassa Mesolongiou - Aitolikou and Ekvoles Evinou, Nisoi Echinades, Nisos Petalas, Dytikos Arakynthos and Stena Kleisouras (Special Protection Area): Law 3937/2011 (OGG/Α 60/31.03.2011), Joint Ministerial Decision 50743/2017 (OGG 4432/B/15.12.17)	Roewer’s record of <i>Cteniza moggridgei</i> O. Pickard-Cambridge, 1874 from the cave of Petalas (1962) considered doubtful by Brignoli (1979) and Bosmans & Chatzaki (2005) removed the species from the spiders' list of Greece.
169	Spilaio Kourna		Natural	Kriti	Chania	Apokoronas	Kournas	24.286000877	35.320629891	160	Location known	Platakis 1961c	1094	GR4340010 - Drapano (voreioanatolikes Aktes) - Paralia Georgioupolis - Limni Kourna (Special Area of Conservation): Law 3937/2011 (OGG/Α 60/31.03.2011), Joint Ministerial Decision 50743/2017 (OGG 4432/B/15.12.17)	
170	Spilaio Monis Timiou Prodromou	Pelade, Grotte de Saint Jean Ie Prodrome	Natural	Kentriki Makedonia	Serres	Serres	Oinousa	23.619666323	41.141667628	407	Location known	Lindberg 1955b	871	GR1260009 - Koilada Timiou Prodromou-menoikion (Special Protection Area): Law 3937/2011 (OGG/Α 60/31.03.2011), Joint Ministerial Decision 50743/2017 (OGG 4432/B/15.12.17)|GR1260004 - Koryfes Orous Menoikion - Oros Kouskouras - Ypsoma - Spilaio Pelade (Special Area of Conservation): Law 3937/2011 (OGG/Α 60/31.03.2011), Joint Ministerial Decision 50743/2017 (OGG 4432/B/15.12.17)	
171	Spilaio Panagias Makrynis		Natural	Voreio Aigaio	Samos	Samos	Kallithea	26.601598909	37.727098571	796	Location known	Petrocheilos 1952e	1152	GR4120008 - Samos: Oros Kerkis (Special Protection Area): Law 3937/2011 (OGG/Α 60/31.03.2011), Joint Ministerial Decision 50743/2017 (OGG 4432/B/15.12.17)	
172	Spilaio Zoodochou Pigis II		Natural	Notio Aigaio	Thira	Thira	Kamari	25.474702431	36.371532627	189	Location known	Ioannou 1970a	798	GR4220003 - Santorini: Nea and Palia Kameni - Profitis Ilias (Special Area of Conservation): Law 3937/2011 (OGG/Α 60/31.03.2011), Joint Ministerial Decision 50743/2017 (OGG 4432/B/15.12.17)	
173	Spilaio Liparotrypa		Natural	Thessalia	Larisa	Tempi	Spilia	22.662800635	39.838899558	1023	Location known			GR1420007 - Oros Ossa (Special Protection Area): Law 3937/2011 (OGG/Α 60/31.03.2011), Joint Ministerial Decision 50743/2017 (OGG 4432/B/15.12.17)	
174	Spilaio Trypa tou Kalyvaki		Natural	Peloponnisos	Korinthia	Korinthos	Klenia	22.881797113	37.775071219	439	Location known				
175	Spilaio Savva Vardaki		Natural	Kriti	Irakleio	Malevizi	Tylisos	24.998175185	35.32724912	437	Location known				
176	Varathro Agrimotrypa		Natural	Kriti	Irakleio	Chersonisos	Dia island	25.19931186559273	35.444556373813	45	Location known	Paragamian 1992e	927	GR4310003 - Nisos Dia (Special Protection Area - Special Area of Conservation): Law 3937/2011 (OGG/Α 60/31.03.2011), Joint Ministerial Decision 50743/2017 (OGG 4432/B/15.12.17)	
177	Varathro Lakki Kontari		Natural	Kriti	Irakleio	Malevizi	Gonies	24.930139372	35.277973324	844	Location known	Paragamian 1992b	924	GR4330005 - Oros Idi (Vorizia, Geranoi, Kali Madara) (Special Area of Conservation): Law 3937/2011 (OGG/Α 60/31.03.2011), Joint Ministerial Decision 50743/2017 (OGG 4432/B/15.12.17)	
178	Varathro Xepatomenos Tafkos		Natural	Kriti	Rethymno	Mylopotamos	Axos	24.838233357	35.304593199	624	Location known	Paragamian 1992j	932		
179	Spilaio Epta Parthenon		Natural	Notio Aigaio	Kalymnos	Kalymnos	Pothia	26.965403942	36.964062961	111	Location known	Kountouris 1952|Petrocheilou & Panagiotidis 1980|Petrocheilou 1984	861|978|1073		
180	Spilaio Skalion		Natural	Notio Aigaio	Kalymnos	Kalymnos	Skalia	26.958038278	37.030311212	113	Location known	Petrocheilou & Panagiotidis 1980|Petrocheilou 1984|Petrocheilou 1989d	978|1073|1077		
181	Spilaio Peristeri		Natural	Attiki	Nisoi Attikis	Troizinia	Methana	23.360092015	37.573172092	20	Location known	Petrocheilou 1974g|Petrocheilou 1984	1056|1073		
182	Spilaio Rachi II		Natural	Attiki	Voreios Tomeas Attikis	Agia Paraskevi	Agia Paraskevi	23.835468171	38.825741	370	Location known	Lindberg 1955b	871		
183	Spilaio Avras	Pozarsca Mala Pestera	Natural	Kentriki Makedonia	Pella	Almopia	Loutra Loutrakiou	21.914981682	40.97073872	404	Location known			GR1240008 - Oros Voras (Special Protection Area): Law 3937/2011 (OGG/Α 60/31.03.2011), Joint Ministerial Decision 50743/2017 (OGG 4432/B/15.12.17)	
184	Spilaio Peristera		Natural	Kriti	Lasithi	Agios Nikolaos	Vrachasi	25.570603543	35.270607366	391	Location known	Lindberg 1955a|Platakis 1952	870|1089	GR4320013 - Farangi Selinari - Vrachasi (Special Protection Area): Law 3937/2011 (OGG/Α 60/31.03.2011), Joint Ministerial Decision 50743/2017 (OGG 4432/B/15.12.17)	
185	Spilaio Melissotrypa		Natural	Thessalia	Larisa	Elassona	Kefalovryso	22.04904606178197	39.87764094125471	300	Location known	Vaxevanopoulos 2007	1140	GR1440003 - Antichasia Ori - Meteora - Spilaio Melissotrypa (Special Area of Conservation): Law 3937/2011 (OGG/Α 60/31.03.2011), Joint Ministerial Decision 50743/2017 (OGG 4432/B/15.12.17)|K717 - Mitrouna - Olympakos - Papamagoula Dimotikon Diamerismaton Palaiokastrou - Kefalovrysou - Kraneas ton Dimon Elassonas - Antichasion [Wildlife Refuge]: OGG 961/Β/2001	
186	Spilaia Faias Petras		Natural	Kentriki Makedonia	Serres	Sintiki	Faia Petra	23.437039286	41.273349547	200	Location known	Lindberg 1955b	871		
187	Spilaio Ano Marathospilio		Natural	Kriti	Rethymno	Mylopotamos	Kynigiana	24.690064533	35.315936105	489	Location known	Lindberg 1955a	870		
188	Spilaio Pestereta		Natural	Kentriki Makedonia	Serres	Serres	Oreini	23.59232093	41.194651976	753	Location known	Lindberg 1955b	871		
189	Spilaio Fantaxospiliara	Metaxospilio, Spiliara, Gria Spilia	Natural	Kriti	Rethymno	Rethymno	Prinos	24.643961666	35.392844997	142	Location known	Faure 1961|Petrocheilou 1970h|Petrocheilos 1953d|Lindberg 1955a	765|1027|962|870	K550 - Profitis Ilias (Angelianon-Prinou-Alfa): Joint Ministerial Decision 161757/ 3167/16.7.1981	
190	Spilaio Lamias		Natural	Kriti	Rethymno	Mylopotamos	Kynigiana	24.697292307	35.29912494	688	Location known	Lindberg 1955a	870	GR4330005 - Oros Idi (Vorizia, Geranoi, Kali Madara) (Special Area of Conservation): Law 3937/2011 (OGG/Α 60/31.03.2011), Joint Ministerial Decision 50743/2017 (OGG 4432/B/15.12.17)	
191	Spilaio Doxa		Natural	Kriti	Irakleio	Malevizi	Marathos	24.999251704	35.345178077	468	Location known	Gasparo 2003	1160		
192	Railway tunnel		Artificial	Thessalia	Larisa	Tempi	Ampelakia	22.581327	39.877460	33	Location known			GR1420005 - Aisthitiko Dasos Koiladas Tempon (Special Protection Area - Special Area of Conservation): Law 3937/2011 (OGG/Α 60/31.03.2011), Joint Ministerial Decision 50743/2017 (OGG 4432/B/15.12.17)	
193	Spilaio Agias Paraskevis		Natural	Thessalia	Larisa	Tempi	Ampelakia	22.585403793	39.880006391	41	Location known			GR1420005 - Aisthitiko Dasos Koiladas Tempon (Special Protection Area - Special Area of Conservation): Law 3937/2011 (OGG/Α 60/31.03.2011), Joint Ministerial Decision 50743/2017 (OGG 4432/B/15.12.17)	
194	Anonymous cave at Kallipefki		Natural	Thessalia	Larisa	Tempi	Kallipefki	22.459114	39.959634	1020	Unknown exact location			K187 - Aspropetra-Ailia (Kallipefkis) [Wildlife Refuge]: OGG 925/Β/1989	
195	Small cave near Larisa		Natural	Thessalia	Larisa	Larisa	Larisa	22.3909	39.609035	70	Unknown exact location				
196	Varathro Dovrenas		Natural	Dytiki Ellada	Aitoloakarnania	Agrinio	Lepenou	21.286517	38.691867	73	Location known			K316 - Petalas (Amfilochias-Kechrinias-Papadatou-Stanou) [Wildlife Refuge]: OGG 834/Β/1979	
197	Spilaio Kefalovrysou		Natural	Peloponnisos	Argolida	Argos - Mykines	ΚefaΙovrissο	22.472122055	37.697237245	782	Location known				
198	Spilaio Choirospilia		Natural	Ionioi Nisoi	Lefkada	Lefkada	Evgiros	20.654660623	38.617822224	119	Location known	Petrocheilou 1966b	1009		
199	Cave near Naousa		Natural	Kentriki Makedonia	Imathia	Naousa	Naousa	22.071338	40.635492	280	Unknown exact location				
200	Spilaio Megalou Alexandrou		Natural	Kentriki Makedonia	Imathia	Naousa	Naousa	22.074981647	40.633524268	270	Location known	Rémy 1951	1110		
201	Spilaio Oinois B'		Natural	Attiki	Anatoliki Attiki	Marathonas	Marathonas	23.931411531	38.15900564	80	Location known	Deligiorgi 1982|Deligiorgi-Alexopoulou 1980|Deligiorgi-Alexopoulou 1985a|Petrocheilos 1958c	756|757|758|973		
202	Spilaio Panagias Sarantaskaliotisas		Natural	Voreio Aigaio	Samos	Samos	Marathokambos	26.659200144	37.727685052	320	Location known	Kirdis & Papadopoulos 2000|Petrocheilou 1984|Petrocheilos 1952e	847|1073|1152	GR4120008 - Samos: Oros Kerkis (Special Protection Area): Law 3937/2011 (OGG/Α 60/31.03.2011), Joint Ministerial Decision 50743/2017 (OGG 4432/B/15.12.17)	
203	Spilaio Agias Kyriakis		Natural	Ipeiros	Preveza	Parga	Parga	20.448080844	39.283677926	220	Location known	Pavlidis 1979|Bonzano & Calandri 1984	949|1159		
204	Cave at Vardousia Mount		Natural	Sterea Ellada	Fokida	Delfoi	Athanasios Diakos	22.174386	38.672706	1100	Unknown Location	Petrocheilou 1992d	1081	GR2450008 - Oros Vardousia (Special Protection Area): Law 3937/2011 (OGG/Α 60/31.03.2011), Joint Ministerial Decision 50743/2017 (OGG 4432/B/15.12.17)	
205	Spilaio Agiou Andrea		Natural	Dytiki Ellada	Aitoloakarnania	Amfilochia	Chalkiopouloi	21.382845696	38.992172787	1206	Location known	Petrocheilos 1957c|Bonzano & Calandri 1984	969|1159	K301 - Kanala (Valtou) [Wildlife Refuge]: OGG 700/Β/1980|GR2110006 - Koilada Acheloou and Ori Valtou (Special Protection Area): Law 3937/2011 (OGG/Α 60/31.03.2011), Joint Ministerial Decision 50743/2017 (OGG 4432/B/15.12.17)	
206	Spilaio Dafnis		Natural	Sterea Ellada	Fokida	Lamieon	Dafni	22.1564	38.751289	1391	Unknown exact location				
207	Spilaio Agias Triadas Aboudiotisas		Natural	Sterea Ellada	Evvoia	Eretria	Kato Seta	23.933515684	38.55952668	874	Location known	Skouras 2000	1123	K630 - Kadditiko-Passiotiko-Maniakatiko Vouno (Kaddiou-Ag. Vlassiou-Manikion) [Wildlife Refuge]: OGG 689/Β/1976|GR2420011 - Ori Kentrikis Evvoias, Paraktia Zoni and Nisides (Special Protection Area): Law 3937/2011 (OGG/Α 60/31.03.2011), Joint Ministerial Decision 50743/2017 (OGG 4432/B/15.12.17)	
208	Spilaio Chiliadous		Natural	Sterea Ellada	Evvoia	Dirfys - Messapies	Paralia Chiliadou	23.930915653	38.666459249	14	Location known				
209	Spilaio Analipsis		Natural	Dytiki Ellada	Achaia	Patra	Pititsa	21.886945496	38.260594779	899	Location known			GR2320007 - Oros Panachaiko (Special Area of Conservation): Law 3937/2011 (OGG/Α 60/31.03.2011), Joint Ministerial Decision 50743/2017 (OGG 4432/B/15.12.17)	
210	Spilaio Limnis Avythou		Natural	Ionioi Nisoi	Kefalonia	Kefalonia	Agios Nikolaos	20.710341854	38.170921649	338	Location known	Petrocheilos 1959b	975		
211	Spilaio Drakospilia		Natural	Ionioi Nisoi	Kefalonia	Kefalonia	Chavriata	20.33861913	38.187653109	76	Location known	Theodorou 1989b	1128		
212	Spilaio Drogkaratis		Natural	Ionioi Nisoi	Kefalonia	Kefalonia	Chaliotata	20.628373788	38.227083526	56	Location known	Petrocheilou 1984	1073		
213	Spilaio Katarrakton		Natural	Kentriki Makedonia	Pella	Edessa	Edessa	22.055495723	40.803595516	270	Location known				
214	Spilaio Kourada		Natural	Kentriki Makedonia	Pella	Edessa	Nisista	21.899650122	40.812281628	512	Location known			GR1240008 - Oros Voras (Special Protection Area): Law 3937/2011 (OGG/Α 60/31.03.2011), Joint Ministerial Decision 50743/2017 (OGG 4432/B/15.12.17)	
215	Mine gallery of Atsitsa		Artificial	Sterea Ellada	Evvoia	Skyros	Atsitsa	24.472280556	38.913338889	98	Location known				
216	Cave near Lykouria		Natural	Dytiki Ellada	Achaia	Kalavryta	Lykouria	22.213079	37.862788	780	Unknown Location				
217	Spilaio Ermi		Natural	Peloponnisos	Korinthia	Xylokastro - Evrostini	Zireia	22.430839868	37.939754399	1664	Location known	Angelopoulou 1935|Petrocheilou 1972c	728|1039	GR2530006 - Oros Zireia (Kyllini) (Special Protection Area): Law 3937/2011 (OGG/Α 60/31.03.2011), Joint Ministerial Decision 50743/2017 (OGG 4432/B/15.12.17)	
218	Spilaio Foros		Natural	Notio Aigaio	Andros	Andros	Aladinou	24.897339913	37.806907664	157	Location known	Petrocheilos 1937|Petrocheilou 1963d	952|997		
219	Spilaio Gaki		Natural	Thessalia	Karditsa	Limni Plastira	Mpelokomiti	21.713655761	39.246312246	1084	Location known			GR2430002 - Ori Agrafa (Special Protection Area): Law 3937/2011 (OGG/Α 60/31.03.2011), Joint Ministerial Decision 50743/2017 (OGG 4432/B/15.12.17)	
220	Spilaia Gouves		Natural	Ipeiros	Trikala	Amfilochia	Chalkiopoulo	21.384264	38.989195	1200	Unknown exact location			K301 - Kanala (Valtou) [Wildlife Refuge]: OGG 700/Β/1980|GR2110006 - Koilada Acheloou and Ori Valtou (Special Protection Area): Law 3937/2011 (OGG/Α 60/31.03.2011), Joint Ministerial Decision 50743/2017 (OGG 4432/B/15.12.17)	
221	Spilaio Megali Katavothra		Natural	Sterea Ellada	Voiotia	Orchomenos	Agios Ioannis (Neo Kokkino)	23.258056	38.501389	128	Location known				
222	Spilaio Riganiou		Natural	Dytiki Ellada	Aitoloakarnania	Nafpaktos	Rigani	21.752722222	38.479888889	478	Location known				
223	Spilaio Stenis		Natural	Sterea Ellada	Evvoia	Dirfys - Messapies	Steni Dirfyos	23.837504728	38.583288706	414	Location known				
224	Varathro Tetrastomo		Natural	Thessalia	Magnisia	Almyros	Vrytaina	22.840721672	39.068604943	366	Location known				
225	Spilaio Varvaras		Natural	Peloponnisos	Lakonia	Sparti	Kryoneri	22.370304874	36.95106658	1520	Unknown exact location			GR2550009 - Oros Taygetos - Lagkada Trypis (Special Protection Area): Law 3937/2011 (OGG/Α 60/31.03.2011), Joint Ministerial Decision 50743/2017 (OGG 4432/B/15.12.17)	
226	Spilaio Plaka II		Natural	Peloponnisos	Lakonia	Anatoliki Mani	Areopoli	22.366155758	36.677639736	60	Location known	Lindberg 1955b	871	GR2540008 - Notia Mani (Special Protection Area): Law 3937/2011 (OGG/Α 60/31.03.2011), Joint Ministerial Decision 50743/2017 (OGG 4432/B/15.12.17)	
227	Spilaio Valiari		Natural	Peloponnisos	Lakonia	Anatoliki Mani	Areopoli	22.367926453	36.679186855	50	Location known	Lindberg 1955b	871	GR2540008 - Notia Mani (Special Protection Area): Law 3937/2011 (OGG/Α 60/31.03.2011), Joint Ministerial Decision 50743/2017 (OGG 4432/B/15.12.17)	
228	Spilaio Megalo Spilio		Natural	Peloponnisos	Lakonia	Anatoliki Mani	Kafiona	22.391245301	36.57575529	45	Location known			GR2540008 - Notia Mani (Special Protection Area): Law 3937/2011 (OGG/Α 60/31.03.2011), Joint Ministerial Decision 50743/2017 (OGG 4432/B/15.12.17)	
229	Spilaio Plaka I		Natural	Peloponnisos	Lakonia	Anatoliki Mani	Areopoli	22.365482028	36.677653367	60	Location known	Lindberg 1955b	871	GR2540008 - Notia Mani (Special Protection Area): Law 3937/2011 (OGG/Α 60/31.03.2011), Joint Ministerial Decision 50743/2017 (OGG 4432/B/15.12.17)	
230	Spilaio Agias Triadas		Natural	Sterea Ellada	Voiotia	Livadeia	Agia Triada	22.906972529	38.355252414	414	Location known				
231	Spilaio Ermi		Natural	Sterea Ellada	Voiotia	Orchomenos	Dionysos	22.942666122	38.50710089	221	Unknown exact location			K366 - Orchomenos (Dionysou-Prosiliou-Akontiou) [Wildlife Refuge]: OGG 402/Β/1983	
232	Spilaio Akontiou		Natural	Sterea Ellada	Voiotia	Livadeia	Akontio	22.879315	38.507806	200	Unknown exact location			K366 - Orchomenos (Dionysou-Prosiliou-Akontiou) [Wildlife Refuge]: OGG 402/Β/1983	
233	Spilaio Mavri Troupa	Spilaio Odyssea Androutsou	Natural	Sterea Ellada	Fthiotida	Amfikleia - Elateia	Tithoraia	22.658401	38.571539	850	Location known			GR2410002 - Oros Parnassos (Special Protection Area): Law 3937/2011 (OGG/Α 60/31.03.2011), Joint Ministerial Decision 50743/2017 (OGG 4432/B/15.12.17)	
234	Quary "Metalleio" of Agios Kirykos		Artificial	Voreio Aigaio	Samos	Ikaria	Agios Kirykos	26.294203474	37.619066727	43	Location known				
235	Spilaio Paralias Potami		Natural	Voreio Aigaio	Samos	Samos	Karlovasi	26.660895	37.788566	5	Unknown exact location			GR4120008 - Samos: Oros Kerkis (Special Protection Area): Law 3937/2011 (OGG/Α 60/31.03.2011), Joint Ministerial Decision 50743/2017 (OGG 4432/B/15.12.17)	
236	Spilaio sto Boutsi		Natural	Dytiki Makedonia	Florina	Prespes	Krystalopigi	21.145875379	40.638847622	1661	Location known				
237	Spilaio Petra Jama		Natural	Dytiki Makedonia	Florina	Prespes	Krystalopigi	21.104229014	40.616773506	1510	Location known				
238	Cave south of Epos		Natural	Ipeiros	Ioannina	Zagori	Papigko	20.743893	39.945162	1750	Unknown exact location			GR2130009 - Oros Tymfi (Gkamila) (Special Protection Area): Law 3937/2011 (OGG/Α 60/31.03.2011), Joint Ministerial Decision 50743/2017 (OGG 4432/B/15.12.17)	
239	Spilaio Profiti Ilia		Natural	Sterea Ellada	Fthiotida	Distomo - Arachova - Antikyra	Arachova	22.5972	38.538792	2000	Unknown exact location			K353 - Asprochoma-Psilo-Prontoli-Kelari (Arachovas) [Wildlife Refuge]: OGG 1043/Β/1976|GR2410002 - Oros Parnassos (Special Protection Area): Law 3937/2011 (OGG/Α 60/31.03.2011), Joint Ministerial Decision 50743/2017 (OGG 4432/B/15.12.17)	
240	Cave on the road to Fterolakka		Natural	Sterea Ellada	Fthiotida	Amfikleia - Elateia	Fterolakkia	22.577078	38.572754	1600	Unknown exact location			GR2410002 - Oros Parnassos (Special Protection Area): Law 3937/2011 (OGG/Α 60/31.03.2011), Joint Ministerial Decision 50743/2017 (OGG 4432/B/15.12.17)	
241	Spilaio Askitotrypa		Natural	Anatoliki Makedonia-Thraki	Kavala	Pangaio	Nikisiani	24.106260753	40.946601951	1178	Location known			K732 - Pangaio Oros Dimon Pangaiou - Eleftheroupolis - Piereon - Orfanou [Wildlife Refuge]: OGG 625/Β/2001|GR1150011 - Oros Pangaio and Noties Yporeies Tou (Special Protection Area): Law 3937/2011 (OGG/Α 60/31.03.2011), Joint Ministerial Decision 50743/2017 (OGG 4432/B/15.12.17)	
242	Spilaio Katavothra Oitis		Natural	Sterea Ellada	Fokida	Delfoi	Pyra	22.29893808427829	38.77178732154066	1553	Location known				
243	Spilaio Agiou Theodorou		Natural	Anatoliki Makedonia-Thraki	Drama	Kato Nevrokopi	Kato Nevrokopi	23.907621682	41.359865713	1188	Location known			K723 - Nevrokopi, Leivadakiou, Achladias, Mikrokleisouras, Volakos, Granitou Dimou Kato Nevrokopiou [Wildlife Refuge]: OGG 639/Β/2001	
244	Spilaio Pozzeto		Natural	Kentriki Makedonia	Imathia	Veroia	Seli	22.129871604	40.491300758	501	Location known				
245	Spilaio Stamataki		Natural	Ipeiros	Arta	Kentrika Tzoumerka	Melissourgoi	21.193756599	39.475798304	1990	Location known			GR2130013 - Evryteri Periochi Athamanikon Oreon (Special Protection Area): Law 3937/2011 (OGG/Α 60/31.03.2011), Joint Ministerial Decision 50743/2017 (OGG 4432/B/15.12.17)	
247	Spilaio Trapeza		Natural	Kriti	Lasithi	Oropedio Lasithiou	Tzermiado	25.49371890400001	35.197833269	853	Location known			GR4320002 - Dikti: Oropedio Lasithiou, Katharo, Selena, Krasi, Selakano, Chalasmeni Koryfi (Special Area of Conservation): Law 3937/2011 (OGG/Α 60/31.03.2011), Joint Ministerial Decision 50743/2017 (OGG 4432/B/15.12.17)	
248	Varathro Petrokotsyfou		Natural	Kriti	Irakleio	Chersonisos	Dia island	25.220571792	35.439814222	26	Location known	Paragamian 1992e	927	GR4310003 - Nisos Dia (Special Protection Area - Special Area of Conservation): Law 3937/2011 (OGG/Α 60/31.03.2011), Joint Ministerial Decision 50743/2017 (OGG 4432/B/15.12.17)	
249	Cave NW of Naousa		Natural	Kentriki Makedonia	Imathia	Naousa	Naousa	22.074617	40.635009	280	Unknown exact location				
250	Spilaio Kolympariou		Artificial	Kriti	Chania	Platanias	Kolympari	23.77593348341387	35.55185603368658	38	Location known	Lindberg 1955a	870	GR4340003 - Chersonisos Rodopou - Paralia Maleme (Special Area of Conservation): Law 3937/2011 (OGG/Α 60/31.03.2011), Joint Ministerial Decision 50743/2017 (OGG 4432/B/15.12.17)	
251	Spilaio Rachi		Natural	Attiki	Voreios Tomeas Attikis	Agia Paraskevi	Agia Paraskevi	23.83561937	38.001255261	341	Location known				
252	Kimmeria artificial galleries		Artificial	Anatoliki Makedonia-Thraki	Xanthi	Xanthi	Kimmeria	24.930596	41.150329	150	Location known			K802 - Panagias Kalamous Taxiarchon Dimou Xanthis [Wildlife Refuge]: OGG 931/Β/2001	
253	Spilaio Kamilata		Natural	Anatoliki Makedonia-Thraki	Evros	Soufli	Dadia	26.13337586102127	41.10163838370683	477	Location known			GR1110002 - Dasos Dadias - Soufli (Special Protection Area): Law 3937/2011 (OGG/Α 60/31.03.2011), Joint Ministerial Decision 50743/2017 (OGG 4432/B/15.12.17)	
254	Varathro Tafkos sta Petradolakia		Natural	Kriti	Rethymno	Anogeia	Anogeia	24.873204333	35.211678612	1472	Location known			GR4330005 - Oros Idi (Vorizia, Geranoi, Kali Madara) (Special Area of Conservation): Law 3937/2011 (OGG/Α 60/31.03.2011), Joint Ministerial Decision 50743/2017 (OGG 4432/B/15.12.17)	
255	Spilaio Achyrospilios		Natural	Kriti	Chania	Chania	Chordaki	24.14465795087644	35.59096489638018	114	Location known	Lindberg 1955a|Vasilopoulos 1959	870|1138	K898 - Stavros Chordaki Dimou Akrotiriou [Wildlife Refuge]: OGG 813/Β/2001	
256	Spilaio Agiou Thoma		Natural	Peloponnisos	Messinia	Dytiki Mani	Agios Nikolaos	22.279386382	36.825852105	6	Location known	Lindberg 1955b|Petrocheilos 1953a	871|959		
257	Spilaio Agias Sofias		Natural	Attiki	Nisoi Attikis	Kythira	Kalamos	23.01831075000001	36.14907423	94	Location known	Papadaki et al. 2006	919		
258	Anonymous cave at SE Karpathos		Natural	Notio Aigaio	Karpathos	Karpathos	Karpathos	27.226303841	35.509327755	6	Unknown exact location				
259	Spilaio Koumelou		Natural	Notio Aigaio	Rodos	Rodos	Arhangelos	28.134525939	36.190921491	53	Location known	Petrocheilou 1979c|Petrocheilou 1984	1067|1073	GR4210029 - Anatoliki Rodos: Profitis Ilias - Epta Piges - Ekvoli Loutani - Katergo, Rema Gadoura - Chersonisos Lindou - Nisides Pentanisa and Tetrapolis, Lofos Psalidi (Special Protection Area): Law 3937/2011 (OGG/Α 60/31.03.2011), Joint Ministerial Decision 50743/2017 (OGG 4432/B/15.12.17)	
260	Spilaio Chainospilios	Marmarospilia, Kamaraki cave	Natural	Kriti	Irakleio	Malevizi	Kamaraki	24.926047175	35.305081051	557	Location known	Foteinakis et al. 2006a	771		
261	Spilaio Oxo Latsidi		Natural	Kriti	Lasithi	Siteia	Sitanos	26.149615456	35.122660722	682	Location known	Platakis & Tsifetakis 1967|Platakis 1979	1088|1105		
262	Spilaio Platanousas		Natural	Ipeiros	Ioannina	Voreia Tzoumerka	Platanousa	21.006412966	39.415156633	541	Location known				
263	Spilaio Grava Tsouka		Natural	Ionioi Nisoi	Kerkyra	Kerkyra	Sokraki	19.767269894	39.708419773	587	Location known	Nikolopoulos & Martzoukos 1957b	906		
264	Spilaio Nymfis		Natural	Attiki	Anatoliki Attiki	Saronikos	Kouvaras	23.965765799	37.828267011	210	Location known	Stefanidis 1934|Anonymous 1935	1125|1153		
265	Spilaio Agiou Ioanni (Fousa)		Natural	Voreio Aigaio	Lesvos	Lesvos	Kato Tritos	26.41977504000001	39.080916069	155	Location known	Choutzaios 1982a|Choutzaios 1982b	751|752	K286 - Plati (Asomaton-Sykountos-Mychou) [Wildlife Refuge]: OGG 234/Β/1987|GR4110005 - Lesvos: Kolpos Geras, Elos Ntipi and Oros Olympos (Special Area of Conservation): Law 3937/2011 (OGG/Α 60/31.03.2011), Joint Ministerial Decision 50743/2017 (OGG 4432/B/15.12.17)	
266	Spilaio Kritsas		Natural	Kriti	Lasithi	Agios Nikolaos	Kritsa	25.643392954	35.160972038	404	Location known				
267	Spilaio Gkremos		Natural	Kentriki Makedonia	Pella	Edessa	Flamouria	22.013204556	40.75048076	316	Location known				
268	Spilaio Pera Spilia		Natural	Dytiki Ellada	Achaia	Erymanthos	Alepochori	21.808597	37.979179		Unknown Location				
269	Spilaio Fylaki	Phylaki	Natural	Anatoliki Makedonia-Thraki	Xanthi	Avdira	Avdira	24.961891003	40.98196514	108	Location known	Lindberg 1955b	871		
270	Spilaio Zeston Neron		Natural	Kentriki Makedonia	Serres	Sintiki	Sidirokastro	23.40051013700001	41.250508236	115	Location known	Lindberg 1955b	871	GR1260007 - Ori Vrontous - Lailias - Epimikes - spilaia Zesta Nera kai Katarrakton (Special Area of Conservation): Law 3937/2011 (OGG/Α 60/31.03.2011), Joint Ministerial Decision 50743/2017 (OGG 4432/B/15.12.17)	
271	Spilaio Zoure	Holy Fathers Cave, Spilaio Agion Pateron	Natural	Kriti	Chania	Kantanos - Selino	Azogyres	23.709419028	35.271712408	591	Location known	Lindberg 1955a|Ioannou 1970d|Faure 1955	870|801|1150		
272	Spilaio Kamariti		Natural	Kriti	Rethymno	Mylopotamos	Axos	24.835194765	35.3103888	510	Location known	Paragamian 1992l	934		
273	Spilaio Kromiri		Natural	Kriti	Chania	Platanias	Afrata	23.765473041	35.581641283	149	Location known			GR4340003 - Chersonisos Rodopou - Paralia Maleme (Special Area of Conservation): Law 3937/2011 (OGG/Α 60/31.03.2011), Joint Ministerial Decision 50743/2017 (OGG 4432/B/15.12.17)	
274	Spilaio sta Koufota		Natural	Kriti	Lasithi	Siteia	Agia Fotia	26.14729669	35.196498077	8	Location known				
275	Spilaio Karouba		Natural	Kriti	Lasithi	Siteia	NA				Unknown Location				
276	Spilaio Kato Peristeras		Natural	Kriti	Lasithi	Siteia	Karydi	26.189910582	35.13254328	610	Location known	Petrocheilou 1970i|Platakis 1964|Platakis 1979	1028|1099|1105		
277	Cave north of Naousa		Natural	Kentriki Makedonia	Imathia	Naousa	Naousa	22.071151	40.63697	280	Unknown exact location				
278	Spilaia Kerkyras		Natural	Ionioi Nisoi	Kerkyra	Kerkyra	NA				Unknown Location				
279	Anonymous cave at Omalos		Natural	Kriti	Chania	Platanias	Lakkoi	23.900042	35.332031		Location known			GR4340008 - Lefka Ori and Paraktia Zoni (Special Area of Conservation): Law 3937/2011 (OGG/Α 60/31.03.2011), Joint Ministerial Decision 50743/2017 (OGG 4432/B/15.12.17)	
280	Anonymous cave at Papigko		Natural	Ipeiros	Ioannina	Zagori	Papigko	20.734725	39.959247		Unknown exact location			GR2130009 - Oros Tymfi (Gkamila) (Special Protection Area): Law 3937/2011 (OGG/Α 60/31.03.2011), Joint Ministerial Decision 50743/2017 (OGG 4432/B/15.12.17)	
281	Spilaio Agias Foteinis		Natural	Kriti	Irakleio	Chersonisos	Avdou	25.423531517	35.211057042	727	Location known	Faure 1955	1150		
282	Spilaio Gaidourotrypa		Natural	Kriti	Lasithi	Agios Nikolaos	Kritsa	25.61822808	35.159546249	770	Location known				
283	Spilaio Kalamitsi		Natural	Peloponnisos	Messinia	Dytiki Mani	Neo Proastio	22.24228496563054	36.87646335311372	103	Location known				
284	Spilaio Nerokourou		Natural	Kriti	Chania	Chania	Nerokouros	24.035955948	35.474530154	90	Location known				
285	Spilaio Nychteridon		Natural	Kentriki Makedonia	Chalkidiki	Nea Propontida	Petralona	23.169172686	40.368923511	344	Location known	Petrocheilos 1960	976	K820 - Petralona - Krini sti thesi Katsika Dimou Triglias [Wildlife Refuge]: OGG 570/Β/2001	
286	Spilaio Sarakinas		Natural	Kriti	Chania	Chania	Theriso	23.99073931703344	35.42891825801207	472	Location known			GR4340007 - Farangi Therissou (Special Area of Conservation): Law 3937/2011 (OGG/Α 60/31.03.2011), Joint Ministerial Decision 50743/2017 (OGG 4432/B/15.12.17)	
287	Spilaio Agion Anargyron		Natural	Peloponnisos	Lakonia	Evrotas	Niata	22.844295957	36.874969444	374	Location known				
288	Spilaio Pigaza		Natural	Peloponnisos	Lakonia	Monemvasia	Sykea	22.969930556	36.720952778	153	Location known			GR2540007 - Ori Anatolikis Lakonias (Special Protection Area): Law 3937/2011 (OGG/Α 60/31.03.2011), Joint Ministerial Decision 50743/2017 (OGG 4432/B/15.12.17)	
289	Anonymous cave I at Kapnofyto		Natural	Kentriki Makedonia	Serres	Sintiki	Kapnofyto	23.47886082200001	41.295934047	316	Location known	Lindberg 1955b	871		
290	Spilaio Kaliakoudotrypa		Natural	Dytiki Ellada	Achaia	Kalavryta	Ano Lousoi	22.112966685	37.974902761	980	Location known	Ioannou 1972d	815		
291	Artificial cave at Valloga		Artificial	Anatoliki Makedonia-Thraki	Drama	Kato Nevrokopi	Granitis	23.911154	41.289132	940	Location known				
292	Spilaio Maara 1		Natural	Anatoliki Makedonia-Thraki	Drama	Drama	Xiropotamos	24.082361	41.196687		Location known				
293	Anonymous cave on Olympos Mount (310)		Natural	Thessalia	Larisa	Dion - Olympos	NA	22.397705	40.063936	2100	Unknown exact location			GR1250001 - Oros Olympos (Special Protection Area - Special Area of Conservation): Law 3937/2011 (OGG/Α 60/31.03.2011), Joint Ministerial Decision 50743/2017 (OGG 4432/B/15.12.17)	
294	Cave near the Sanctuary of Apollo		Natural	Notio Aigaio	Rodos	Rodos	Rodos	28.210472	36.439746	20	Unknown exact location				
295	Anonymous cave at Zoniana		Natural	Kriti	Rethymno	Mylopotamos	Zoniana	24.838691	35.297991		Unknown Location				
296	Spilaio Peristera		Natural	Kriti	Lasithi	Oropedio Lasithiou	Limnakaro	25.479902859	35.145882011	1209	Location known			GR4320010 - Lazaros Koryfi - Madara Diktis (Special Protection Area): Law 3937/2011 (OGG/Α 60/31.03.2011), Joint Ministerial Decision 50743/2017 (OGG 4432/B/15.12.17)	
297	Anonymous cave at Trypi		Natural	Peloponnisos	Lakonia	Sparti	Trypi	22.30024	37.075211	780	Unknown exact location			GR2550009 - Oros Taygetos - Lagkada Trypis (Special Protection Area): Law 3937/2011 (OGG/Α 60/31.03.2011), Joint Ministerial Decision 50743/2017 (OGG 4432/B/15.12.17)	
298	Spilaio Gouva II		Natural	Ipeiros	Trikala	Amfilochia	Chalkiopoulo	21.401116	38.988356	715	Unknown exact location	Bonzano & Calandri 1984	1159	K301 - Kanala (Valtou) [Wildlife Refuge]: OGG 700/Β/1980|GR2110006 - Koilada Acheloou and Ori Valtou (Special Protection Area): Law 3937/2011 (OGG/Α 60/31.03.2011), Joint Ministerial Decision 50743/2017 (OGG 4432/B/15.12.17)	
299	Spilaio Trypa Rendes		Natural	Ipeiros	Arta	Georgios Karaiskakis	Skulikaria	21.273103138	39.17886968	1196	Location known			GR2110006 - Koilada Acheloou and Ori Valtou (Special Protection Area): Law 3937/2011 (OGG/Α 60/31.03.2011), Joint Ministerial Decision 50743/2017 (OGG 4432/B/15.12.17)	
300	Spilaio of Agia Roumeli		Natural	Kriti	Chania	Sfakia	Agia Roumeli	23.964859752	35.232038928	25	Location known			GR4340014 - Ethnikos Drymos Samarias - Farangi Trypitis - Psilafi - Koustogerako (Special Protection Area): Law 3937/2011 (OGG/Α 60/31.03.2011), Joint Ministerial Decision 50743/2017 (OGG 4432/B/15.12.17)	
301	Spilaio Prinou		Natural	Kriti	Rethymno	Rethymno	Prinos	24.645866099	35.391302253	154	Location known	Makris 1989	875	K550 - Profitis Ilias (Angelianon-Prinou-Alfa): Joint Ministerial Decision 161757/ 3167/16.7.1981	
302	Small caves near Agios Dimitrios		Natural	Peloponnisos	Arkadia	Notia Kynouria	Kosmas	22.764155	37.13	850	Unknown exact location			GR2520005 - Moni Elonas and Charadra Leonidiou (Special Area of Conservation): Law 3937/2011 (OGG/Α 60/31.03.2011), Joint Ministerial Decision 50743/2017 (OGG 4432/B/15.12.17)	
303	Spilaio Charkadio	Spilaio Elefanton	Natural	Notio Aigaio	Rodos	Tilos	Tilos	27.376531562	36.43750447	161	Location known			K746 - Nisos Tilos [Wildlife Refuge]: OGG 1322/Β/2001|GR4210024 - Nisos Tilos and Nisides: Antitilos, Pelekousa, Gaidouronisi, Giakoumis, Agios Andreas, Prasouda, Nisi (Special Protection Area): Law 3937/2011 (OGG/Α 60/31.03.2011), Joint Ministerial Decision 50743/2017 (OGG 4432/B/15.12.17)	
304	Spilaio Nycteridospilio		Natural	Kriti	Chania	Platanias	Afrata	23.763047154	35.575213807	168	Location known			GR4340003 - Chersonisos Rodopou - Paralia Maleme (Special Area of Conservation): Law 3937/2011 (OGG/Α 60/31.03.2011), Joint Ministerial Decision 50743/2017 (OGG 4432/B/15.12.17)	
305	Varathro Panagias		Natural	Notio Aigaio	Thira	Folegandros	Folegandros	24.930906	36.632653	240	Location known				
306	Palio Pyli cave IV		Natural	Notio Aigaio	Kos	Kos	Palio Pyli	27.186666	36.837041		Unknown exact location			GR4210008 - Kos: Akrotirio Louros - Limni Psalidi - Oros Dikaios - Alyki - Paraktia Thalassia Zoni (Special Area of Conservation): Law 3937/2011 (OGG/Α 60/31.03.2011), Joint Ministerial Decision 50743/2017 (OGG 4432/B/15.12.17)	
307	Spilaio Agiou Konstantinou		Natural	Kriti	Lasithi	Agios Nikolaos	Paralia Milatou	25.58633397	35.326582449	60	Location known	Lindberg 1955a|Platakis 1953	870|1090		
308	Spilaio Vravrona II		Natural	Attiki	Anatoliki Attiki	Markopoulou Mesogaias	Vavrona	24.011386549	37.916564853	36	Location known			GR3000004 - Vravrona - Paraktia Thalassia Zoni (Special Area of Conservation): Law 3937/2011 (OGG/Α 60/31.03.2011), Joint Ministerial Decision 50743/2017 (OGG 4432/B/15.12.17)	
309	Spilaio Vigla	Nychteridospilios, Kerato Viannou	Natural	Kriti	Irakleio	Viannos	Ano Viannos	25.40739000568239	35.01071841840579	512	Location known	Mandalaki 1953	877		
310	Spilaio Melissanis		Natural	Ionioi Nisoi	Kefalonia	Kefalonia	Karavomylos	20.623619092	38.256976692	33	Location known	Petrocheilou 1984	1073		
311	Spilaio Grava tou Fossa		Natural	Ionioi Nisoi	Kerkyra	Kerkyra	Pandokratoras	19.88493056	39.759649746	557	Location known				
312	Spilaio Agiou Georgiou	Trypa Agiou Georgiou, Boulasiki, Saranta Kamares	Natural	Kentriki Makedonia	Kilkis	Kilkis	Kilkis	22.870261532	40.999698185	320	Location known	Petrocheilou 1984|Petrocheilou 1973d|Petrocheilou 1962c|Pavlopoulos 1952	1073|1049|991|950		
313	Ampelouzos underground quary		Artificial	Kriti	Irakleio	Gortyna	Ampelouzos	24.948611	35.068333	200	Location known				
314	Ancient mine 4 km E of Efthalou		Artificial	Voreio Aigaio	Lesvos	Lesvos	Efthalou	26.265946	39.37704	11	Location known			K253 - Kastelia Ag. Dimitrios (Mithymna-Argenou-Lepetymnou) [Wildlife Refuge]: OGG 234/Β/1987	
315	Ancient mine near Vassilika		Artificial	Voreio Aigaio	Lesvos	Lesvos	Vasilika	26.280061	39.108806	340	Unknown exact location			GR4110011 - Oros Olympos Lesvou (Special Protection Area): Law 3937/2011 (OGG/Α 60/31.03.2011), Joint Ministerial Decision 50743/2017 (OGG 4432/B/15.12.17)	
316	Spilaio Ermakias		Natural	Dytiki Makedonia	Kozani	Eordaia	Ermakia	21.827728	40.495086	890	Location known	Ioannou 1970e	802		
317	Spilaio Meires		Natural	Kriti	Irakleio	Faistos	Alithini	24.88916730093131	35.00471210527739	368	Location known			K587 - Vigla-Kryo Nero (Antiskariou): OGG 683/Β/1976	
318	Spilaio Mikropolis		Natural	Anatoliki Makedonia-Thraki	Drama	Prosotsani	Mikropoli	23.814736367	41.188176229	395	Location known			GR1260009 - Koilada Timiou Prodromou-menoikion (Special Protection Area): Law 3937/2011 (OGG/Α 60/31.03.2011), Joint Ministerial Decision 50743/2017 (OGG 4432/B/15.12.17)	
319	Spilaio Mithymnas		Natural	Voreio Aigaio	Lesvos	Lesvos	Mithymna	26.1850699479162	39.36196806560816	20	Location known			GR4110012 - Voreia Lesvos (Special Protection Area): Law 3937/2011 (OGG/Α 60/31.03.2011), Joint Ministerial Decision 50743/2017 (OGG 4432/B/15.12.17)	
320	Spilaio Nychteridospilios		Natural	Kriti	Irakleio	Irakleio	Ano Asites	25.003892711	35.197954017	490	Location known				
321	Spilaio Psimaki		Natural	Kriti	Chania	Apokoronas	Fylaki	24.32971402326511	35.29887337664231	115	Location known			GR4340010 - Drapano (voreioanatolikes Aktes) - Paralia Georgioupolis - Limni Kourna - Spilaio Psimaki (Special Area of Conservation): Law 3937/2011 (OGG/Α 60/31.03.2011), Joint Ministerial Decision 50743/2017 (OGG 4432/B/15.12.17)	
322	Spilaio Tafos		Natural	Kriti	Lasithi	Agios Nikolaos	Kroustas	25.640019508	35.118537728	776	Location known				
323	Spilaio Venidon		Natural	Kriti	Chania	Apokoronas	Champatha	24.22304898834997	35.35691019194839	205	Location known				
324	Spilaio Voreino		Natural	Kriti	Lasithi	Siteia	Chochlakies	26.280175492	35.139489234	63	Location known				
325	Spilaio Vouva Lefkimmis		Natural	Anatoliki Makedonia-Thraki	Evros	Soufli	Lefkimmi	26.19157314080542	41.06677739909943	232	Location known			K602 - Dadia-Lykofos-Lefkimmi [Wildlife Refuge]: OGG 305/Β/1987|GR1110002 - Dasos Dadias - Soufli (Special Protection Area): Law 3937/2011 (OGG/Α 60/31.03.2011), Joint Ministerial Decision 50743/2017 (OGG 4432/B/15.12.17)	
326	Tsoutouros mine galΙeries		Artificial	Anatoliki Makedonia-Thraki	Evros	Soufli	Dadia	26.19124135046519	41.15189750512024	190	Location known			GR1110002 - Dasos Dadias - Soufli (Special Protection Area): Law 3937/2011 (OGG/Α 60/31.03.2011), Joint Ministerial Decision 50743/2017 (OGG 4432/B/15.12.17)|K601 - Zioga-Kalyvia (Dadias-Soufliou) [Wildlife Refuge]: OGG 305/Β/1986	
327	Spilaio Erfon		Natural	Kriti	Rethymno	Rethymno	Erfoi	24.64055458805169	35.36471689803233	151	Location known				
328	Abandoned copper mine (Nealia)		Artificial	Voreio Aigaio	Samos	Ikaria	Agios Kirykos	26.30890160940856	37.6258429240532	42	Location known				
329	Cave at Chora		Natural	Anatoliki Makedonia-Thraki	Evros	Samothraki	Samothraki	25.525119	40.475784	250	Unknown exact location				
330	Artificial gallery under a school		Artificial	Kriti	Irakleio	Irakleio	Ano Fortetsa	25.14833591839912	35.30277288089423	164	Location known				
331	Spilaio Kamaron		Natural	Kriti	Irakleio	Faistos	Kamares	24.827646608	35.177363445	1711	Location known	Faure 1985	768	GR4330009 - Oros Psiloreitis (notiodytiko Tmima) (Special Protection Area): Law 3937/2011 (OGG/Α 60/31.03.2011), Joint Ministerial Decision 50743/2017 (OGG 4432/B/15.12.17)	
332	Spilaio Lachtarides		Natural	Kriti	Lasithi	Agios Nikolaos	Milatos	25.586275655	35.328435946	22	Location known	Choreftaki et al. 2006	750		
333	Spilaio Mikro Lavyrinthaki		Artificial	Kriti	Irakleio	Faistos	Moroni	24.920424514	35.079710121	393	Location known				
334	Varathro Peristerospilios		Natural	Kriti	Rethymno	Anogeia	Anogeia	24.88416667	35.19055556	1469	Location known			GR4310009 - Krousonas - Vromonero Idis (Special Protection Area): Law 3937/2011 (OGG/Α 60/31.03.2011), Joint Ministerial Decision 50743/2017 (OGG 4432/B/15.12.17)	
335	Spilaio Provatonas		Natural	Anatoliki Makedonia-Thraki	Evros	Soufli	Provatona	26.22995224421067	41.03411263564986	36	Location known			GR1110002 - Dasos Dadias - Soufli (Special Protection Area): Law 3937/2011 (OGG/Α 60/31.03.2011), Joint Ministerial Decision 50743/2017 (OGG 4432/B/15.12.17)	
336	Spilaio Skoteini		Natural	Kriti	Chania	Apokoronas	Fylaki	24.32700204571248	35.30749232487802	155	Location known	Faure 1955	1150	GR4340010 - Drapano (voreioanatolikes Aktes) - Paralia Georgioupolis - Limni Kourna (Special Area of Conservation): Law 3937/2011 (OGG/Α 60/31.03.2011), Joint Ministerial Decision 50743/2017 (OGG 4432/B/15.12.17)	
337	Spilaio Stravomyti		Natural	Kriti	Irakleio	Archanon - Asterousion	Archanes	25.13681113	35.214815835	374	Location known			K859 - Oros Giouchta kai Farangi Agias Eirinis Dimos Archanon [Wildlife Refuge]: OGG 927/Β/2002|GR4310010 - Oros Giouchtas (Special Protection Area): Law 3937/2011 (OGG/Α 60/31.03.2011), Joint Ministerial Decision 50743/2017 (OGG 4432/B/15.12.17)	
338	Varathro Garotrypa		Natural	Kriti	Rethymno	Anogeia	Anogeia	24.881765747	35.20963378	1493	Location known			GR4330005 - Oros Idi (Vorizia, Geranoi, Kali Madara) (Special Area of Conservation): Law 3937/2011 (OGG/Α 60/31.03.2011), Joint Ministerial Decision 50743/2017 (OGG 4432/B/15.12.17)	
339	Varathro Tsakalou		Natural	Kriti	Irakleio	Malevizi	Gonies	24.943991415	35.283749274	744	Location known			GR4330005 - Oros Idi (Vorizia, Geranoi, Kali Madara) (Special Area of Conservation): Law 3937/2011 (OGG/Α 60/31.03.2011), Joint Ministerial Decision 50743/2017 (OGG 4432/B/15.12.17)	
340	Anonymous cave at Lakoma coast		Natural	Anatoliki Makedonia-Thraki	Evros	Samothraki	Lakkoma	25.522612	40.422484	0	Location known			GR1110012 - Samothraki: Oros Fengari and Paraktia Zoni (Special Protection Area): Law 3937/2011 (OGG/Α 60/31.03.2011), Joint Ministerial Decision 50743/2017 (OGG 4432/B/15.12.17)	
341	Spilaio Koulieri		Natural	Kriti	Chania	Chania	Myloniana	23.93916950009637	35.46083413789958	155	Location known				
342	Spilaio Symittou		Natural	Dytiki Ellada	Aitoloakarnania	Aktio - Vonitsa	Monastiraki	20.935875649	38.857012136	211	Location known				
343	Artificial tunnel		Artificial	Kriti	Chania	Kantanos - Selino	Palaiochora	23.6867	35.238889	20	Location known				
344	Spilaio Agias Eleousas		Natural	Peloponnisos	Arkadia	Voreia Kynouria	Nea Chora	22.55529710755284	37.37024304413615	626	Location known				
345	Spilaio Agion Theodoron	Spilaio Avanta	Natural	Anatoliki Makedonia-Thraki	Evros	Alexandroupoli	Avantas	25.861245014	40.933874248	101	Location known			GR1110009 - Notio Dasiko Symplegma Evrou (Special Protection Area): Law 3937/2011 (OGG/Α 60/31.03.2011), Joint Ministerial Decision 50743/2017 (OGG 4432/B/15.12.17)	
346	Spilaio Mameloukou Trypa		Natural	Kriti	Chania	Chania	Perivolia	23.99999806911399	35.47525267018467	167	Location known				
347	Spilaio Agiou Isidorou		Natural	Voreio Aigaio	Lesvos	Lesvos	Agios Isidoros	26.393263219	38.968625517	9	Location known	Petrocheilou 1965b	1006		
349	Spilaio Pantokratora		Natural	Ionioi Nisoi	Kerkyra	Kerkyra	Barbati	19.867912867	39.722273064	229	Location known				
350	Spilaio Voskovrysi		Natural	Anatoliki Makedonia-Thraki	Kavala	Pangaio	Mesoropi	24.08516759	40.899704994	1355	Location known	Chatzilazaridis 1989a	747	K732 - Pangaio Oros Dimon Pangaiou - Eleftheroupolis - Piereon - Orfanou [Wildlife Refuge]: OGG 625/Β/2001|GR1150011 - Oros Pangaio and Noties Yporeies Tou (Special Protection Area): Law 3937/2011 (OGG/Α 60/31.03.2011), Joint Ministerial Decision 50743/2017 (OGG 4432/B/15.12.17)	
351	Spilaio Kryoneridas		Natural	Kriti	Chania	Apokoronas	Vafes	24.1702828691378	35.35832958219399	285	Location known	Platakis 1963b|Faure 1955	1098|1150		
352	Spilaio Daimonospilios		Natural	Kriti	Chania	Platanias	Lakkoi	23.911523	35.301707	356	Location known	Paragamian 1989	923	K734 - Lefka Ori Anatolikou Selinou kai Sfakion [Wildlife Refuge]: OGG 235/Δ/2009|GR4340014 - Ethnikos Drymos Samarias - Farangi Trypitis - Psilafi - Koustogerako (Special Protection Area): Law 3937/2011 (OGG/Α 60/31.03.2011), Joint Ministerial Decision 50743/2017 (OGG 4432/B/15.12.17)	
353	Spilaio Mavri Spilia		Natural	Dytiki Ellada	Ileia	Zacharo	Stomio	21.815851243	37.402971776	527	Location known				
354	Spilaio Grylon		Natural	Notio Aigaio	Karpathos	Karpathos	Karpathos	27.181566312	35.531747575	80	Location known	Rathgeber & Jantschke 2005	1108		
355	Anonymous cave south of Agios Nikolaos		Natural	Kriti	Lasithi	Agios Nikolaos	Vathy	25.718377586	35.148960783	69	Location known				
356	Cave on Kerkis Mount		Natural	Voreio Aigaio	Samos	Samos	Drakaioi	26.630165	37.74376		Unknown Location			GR4120008 - Samos: Oros Kerkis (Special Protection Area): Law 3937/2011 (OGG/Α 60/31.03.2011), Joint Ministerial Decision 50743/2017 (OGG 4432/B/15.12.17)	
357	Spilaio Katafygi		Natural	Peloponnisos	Lakonia	Sparti	Anavryti	22.374316518	37.029501054	760	Location known	Merdenesianos 2000a	887	GR2550009 - Oros Taygetos - Lagkada Trypis (Special Protection Area): Law 3937/2011 (OGG/Α 60/31.03.2011), Joint Ministerial Decision 50743/2017 (OGG 4432/B/15.12.17)	
358	Spilaio Germa		Natural	Dytiki Makedonia	Kastoria	Orestida	Germas	21.428465	40.453444	760	Location known				
359	Spilaio Kerasias		Natural	Kentriki Makedonia	Pella	Edessa	Kerasia	21.964491152	40.877611516	688	Location known			GR1240008 - Oros Voras (Special Protection Area): Law 3937/2011 (OGG/Α 60/31.03.2011), Joint Ministerial Decision 50743/2017 (OGG 4432/B/15.12.17)	
360	Spilaio Gefyras Filou		Natural	Ipeiros	Ioannina	Voreia Tzoumerka	Kalarrytes	21.127749739	39.577634303	746	Location known			GR2130007 - Oros Lakmos (Peristeri) (Special Protection Area - Special Area of Conservation): Law 3937/2011 (OGG/Α 60/31.03.2011), Joint Ministerial Decision 50743/2017 (OGG 4432/B/15.12.17)	
361	Spilaio Mikro Katofygi		Natural	Kriti	Lasithi	Siteia	Agios Georgios	26.055388889	35.129416667	501	Location known	Lindberg 1955a|Platakis 1964	870|1099		
362	Spilaio Mintsi		Natural	Kentriki Makedonia	Pella	Edessa	Edessa	22.052857523	40.79947737	286	Location known	Lindberg 1955b|Rémy 1951	871|1110		
363	Spilaio Apoloustres		Natural	Kriti	Lasithi	Ierapetra	Pefkoi	25.989501782	35.088102969	752	Location known	Georgiakakis et al. 2006	776		
364	Spilaio Kyklopa		Natural	Anatoliki Makedonia-Thraki	Evros	Alexandroupoli	Makri	25.746481	40.848451	39	Location known	Petrocheilou 1971f	1034		
365	Spilaio Kombotadon		Natural	Sterea Ellada	Fthiotida	Lamia	Kombotades	22.34324977822721	38.8515829930789	613	Location known			GR2440007 - Ethnikos Drymos Oitis - Koilada Asopou (Special Protection Area): Law 3937/2011 (OGG/Α 60/31.03.2011), Joint Ministerial Decision 50743/2017 (OGG 4432/B/15.12.17)	
366	Spilaio Mougkri		Natural	Kriti	Rethymno	Mylopotamos	Sises	24.83694700861948	35.39475565841495	232	Location known				
367	Spilaio Trinolenos		Natural	Peloponnisos	Arkadia	Tripoli	Levidi	22.26	37.69	1397	Location known			GR2520001 - Oros Mainalo (Special Area of Conservation): Law 3937/2011 (OGG/Α 60/31.03.2011), Joint Ministerial Decision 50743/2017 (OGG 4432/B/15.12.17)	
368	Artificial tunnel at southern coast of Palaochora		Artificial	Kriti	Chania	Kantanos - Selino	Palaiochora	23.680991	35.22456	5	Unknown exact location				
369	Spilaio Katofygiou	Neraidas Spilios	Natural	Kriti	Irakleio	Viannos	Katofygi	25.41022703344061	35.09170215216098	600	Location known				
370	Spilaio Neraidospilia		Natural	Kriti	Chania	Kissamos	Sfinari	23.56895957717326	35.43819792249602	18	Location known	Faure 1961	765		
371	Spilaio Piskokefalou		Natural	Kriti	Lasithi	Siteia	Piskokefalo	26.093668891	35.175064535	42	Location known				
372	Spilaio Skalas Trypa		Natural	Kriti	Chania	Apokoronas	Alikampos	24.20633240648492	35.34593113399938	299	Location known				
373	Spilaio Agiou Vartholomaiou		Natural	Voreio Aigaio	Lesvos	Lesvos	Agia Marina	26.556362916	39.066066041	193	Location known	Petrocheilou 1971e	1033		
374	Spilaio Zachariadi		Natural	Dytiki Makedonia	Florina	Prespes	Pyli	21.028332295	40.77787636	920	Location known			GR1340001 - Ethnikos Drymos Prespon (Special Protection Area - Special Area of Conservation): Law 3937/2011 (OGG/Α 60/31.03.2011), Joint Ministerial Decision 50743/2017 (OGG 4432/B/15.12.17)	
375	Cave at Rodopos peninsula		Natural	Kriti	Chania	Platanias	Afrata	23.747074	35.585326	200	Unknown exact location			GR4340003 - Chersonisos Rodopou - Paralia Maleme (Special Area of Conservation): Law 3937/2011 (OGG/Α 60/31.03.2011), Joint Ministerial Decision 50743/2017 (OGG 4432/B/15.12.17)	
376	Cave Monastery at Meteora		Natural	Ipeiros	Trikala	Kalampaka	Μeteora	21.626897	39.712723	500	Unknown Location			GR1440005 - Antichasia Ori and Meteora (Special Protection Area): Law 3937/2011 (OGG/Α 60/31.03.2011), Joint Ministerial Decision 50743/2017 (OGG 4432/B/15.12.17)	
377	Artificial tunnel at Nopigeia		Artificial	Kriti	Chania	Kissamos	Nopigeia	23.7193	35.5072		Unknown exact location				
378	Artificial unerground gallery		Artificial	Kriti	Irakleio	Faistos	Kamilari	24.78683	35.031716	110	Unknown exact location				
379	Mine gallery		Artificial	Kriti	Chania	Platanias	Voukolies	23.8105	35.4174		Unknown exact location				
380	Spilaio Arkalospilios		Natural	Kriti	Irakleio	Malevizi	Marathos	24.96720816693371	35.34492673121891	523	Location known				
381	Spilaio Pythiou		Natural	Thessalia	Larisa	Elassona	Pythio	22.238153	40.065235		Unknown exact location			K176 - Magkouta-Alonaki-Karamano [Wildlife Refuge]: OGG 277/Β/1995	
382	Spilaio Varasovas		Natural	Dytiki Ellada	Aitoloakarnania	Nafpaktos	Ano Vasiliki	21.598841139	38.368612981	502	Location known			GR2310005 - Oros Varasova (Special Area of Conservation): Law 3937/2011 (OGG/Α 60/31.03.2011), Joint Ministerial Decision 50743/2017 (OGG 4432/B/15.12.17)	
383	Spilaio Kastrou		Natural	Dytiki Ellada	Aitoloakarnania	Nafpaktos	Nafpaktos	21.824151	38.396109	150	Location known			K378 - Afroxylia-Vamvakou (Mamouladon-Afroxylias-Vamvakous) [Wildlife Refuge]: OGG 757/Β/1982	
384	Spilaio Keras Spiliotissas		Natural	Kriti	Chania	Platanias	Vryses	23.886944	35.490556		Unknown Location				
385	Cave at Kastelos		Natural	Kriti	Chania	Apokoronas	Kastelos	24.309984	35.311817	230	Unknown Location			GR4340010 - Drapano (voreioanatolikes Aktes) - Paralia Georgioupolis - Limni Kourna (Special Area of Conservation): Law 3937/2011 (OGG/Α 60/31.03.2011), Joint Ministerial Decision 50743/2017 (OGG 4432/B/15.12.17)	
386	Cave at Theriso		Natural	Kriti	Chania	Chania	Theriso	23.985712	35.404794	570	Unknown exact location				
387	Cave in hills south of Chania		Natural	Kriti	Chania	Chania	Chania	24.018284	35.47577		Unknown Location				
388	Spilaio Agias Marinas		Natural	Attiki	Anatoliki Attiki	Marathonas	Marathonas	23.884988	37.830969	121	Location known				
389	Spilaio Agiou Antoniou		Natural	Kriti	Lasithi	Ierapetra	Lithines	26.027033559	35.092779138	227	Location known				
390	Spilaio Krygiospilios		Natural	Kriti	Lasithi	Ierapetra	Riza	25.549501308	35.032172576	640	Location known	Platakis 1963b	1098		
391	Spilaio Nestoros		Natural	Peloponnisos	Messinia	Pylou - Nestoros	Petrochori	21.657329	36.959985	70	Location known			K501 - Limni Ntivari-Valtos (Pylou-Romanou) [Wildlife Refuge]: OGG 690/Β/1996|GR2550008 - Limnothalassa Gialovas and Nisos Sfaktiria (Special Protection Area): Law 3937/2011 (OGG/Α 60/31.03.2011), Joint Ministerial Decision 50743/2017 (OGG 4432/B/15.12.17)	
392	Spilaio sta Agridia		Natural	Kriti	Rethymno	Mylopotamos	Agridia	24.84693211684057	35.32833560442462	426	Location known				
393	Varathro Votsos Agiou Theologou		Natural	Voreio Aigaio	Samos	Fournon Korseon	Fournoi	26.491216634	37.565449308	231	Location known	Paragamian 2006	943	GR4120006 - Nisos Fournoi and Nisides Thymaina, Alatsonisi, Thymainaki, Strongylo, Plaka, Makronisi, Mikros and Megalos Anthropofagos, Agios Minas (Special Protection Area): Law 3937/2011 (OGG/Α 60/31.03.2011), Joint Ministerial Decision 50743/2017 (OGG 4432/B/15.12.17)	
394	Spilaio Achnistres		Natural	Kriti	Lasithi	Agios Nikolaos	Paralia Milatou	25.548738886	35.318852027	61	Location known	Choreftaki et al. 2006	750		
395	Spilaio Achnistres		Natural	Kriti	Lasithi	Agios Nikolaos	Pines	25.707724096	35.275416545	187	Location known				
396	Spilaio Agiou Stavrou		Natural	Kriti	Lasithi	Ierapetra	Chrysopigi	25.950614161	35.102007321	389	Location known				
397	Spilaio Faneromenis		Natural	Kriti	Irakleio	Chersonisos	Avdou	25.427821978	35.217714345	519	Location known				
398	Spilaio Monis Kaleri		Natural	Kriti	Irakleio	Minoa Pediadas	Kasteli	25.33022598	35.239599958	365	Location known				
399	Spilaio Tis Margias o Spilios		Natural	Kriti	Irakleio	Chersonisos	Malia	25.457431995	35.276241642	105	Location known				
400	Spilaio Tou Sfakianou i Trypa		Natural	Kriti	Lasithi	Ierapetra	Kalamafka	25.628501098	35.072247418	925	Location known	Paragamian et al. 2006	944		
401	Spilaio Trypa sto Seli		Natural	Kriti	Lasithi	Agios Nikolaos	Kroustas	25.655478697	35.134820761	544	Location known				
402	Varathro Latsida sta Lakkia		Natural	Kriti	Lasithi	Agios Nikolaos	Pines	25.706651272	35.275007926	186	Location known				
403	Varathro Xepatomeni Latsida		Natural	Kriti	Lasithi	Oropedio Lasithiou	Lagou	25.469062164	35.208406091	946	Location known	Paragamian 1992p	938	GR4320002 - Dikti: Oropedio Lasithiou, Katharo, Selena, Krasi, Selakano, Chalasmeni Koryfi (Special Area of Conservation): Law 3937/2011 (OGG/Α 60/31.03.2011), Joint Ministerial Decision 50743/2017 (OGG 4432/B/15.12.17)	
404	Spilaio Naousas	Vodena Jama	Natural	Kentriki Makedonia	Imathia	Naousa	Naousa	22.06649	40.635636	313	Location known				
405	Spilaio Lentaka Trypa	Höhle Lendarà	Natural	Kriti	Chania	Apokoronas	Melidoni	24.121589685	35.385492959	352	Location known	Faure 1962|Platakis 1963b	766|1098		
406	Spilaio Gastrion		Natural	Notio Aigaio	Tinos	Tinos	Tinos	25.124455282	37.547498002	6	Location known				
407	The Lost Glasses cave		Natural	Agio Oros	Agio Oros	Athos	Agia Anna monastery	24.297224847	40.141166254	329	Location known			GR1270003 - Chersonisos Athos (Special Area of Conservation): Law 3937/2011 (OGG/Α 60/31.03.2011), Joint Ministerial Decision 50743/2017 (OGG 4432/B/15.12.17)	
408	Cave in pine forest		Natural	Kriti	Rethymno	Rethymno	Rethymno	24.481183	35.358106	110	Unknown Location				
409	Artificial cave at Prines		Artificial	Kriti	Rethymno	Rethymno	Prines	24.426773	35.346524		Unknown exact location				
410	Spilaio Afroimou		Natural	Kriti	Rethymno	Apokoronas	Asi Gonia	24.265795	35.282869	780	Unknown exact location				
411	Spilaio Marile Trypa		Natural	Kriti	Rethymno	Amari	Elenes	24.61346802	35.220102893	639	Location known	Faure 1955	1150		
412	Spilaio Peiratou		Natural	Kriti	Rethymno	Rethymno	Rethymno	24.41907489200001	35.363630921	39	Location known				
413	Spilaio Simoneli		Natural	Kriti	Rethymno	Rethymno	Rethymno	24.431778403	35.367860072	29	Location known				
414	Spilaio Skoteinospilios		Natural	Kriti	Rethymno	Rethymno	Myloi	24.504612279	35.336412205	259	Location known			GR4330004 - Prassano Farangi - Patsos - Sfakoryako Rema - Paralia Rethymnou and Ekvoli Geropotamou, Akr. Lianos Kavos - Perivolia (Special Area of Conservation): Law 3937/2011 (OGG/Α 60/31.03.2011), Joint Ministerial Decision 50743/2017 (OGG 4432/B/15.12.17)	
415	Spilaio Nychteridospilios		Natural	Kriti	Rethymno	Rethymno	Maroulas	24.550790591	35.345821695	246	Location known			GR4330008 - Prassano Farangi (Special Protection Area): Law 3937/2011 (OGG/Α 60/31.03.2011), Joint Ministerial Decision 50743/2017 (OGG 4432/B/15.12.17)	
416	Spilaio Agias Sofias		Natural	Attiki	Nisoi Attikis	Kythira	Agia Pelagia	22.98574016450375	36.31404058720408	127	Location known	Papadaki et al. 2006	919		
417	Spilaio Spoa		Natural	Notio Aigaio	Karpathos	Karpathos	Spoa	27.140352672	35.640408854	410	Unknown exact location	Rathgeber & Jantschke 2005	1108	K538 - Aspri Petra-Poua-Cháï (Spoa Karpathou) [Wildlife Refuge]: OGG 757/Β/1982	
418	Spilaio Schista		Natural	Kriti	Irakleio	Chersonisos	Kalo Chorio	25.35641	35.278594		Unknown exact location			K790 - Aposelemi Dimou Chersonisou [Wildlife Refuge]: OGG 754/Β/2001	
419	Varathro Poros Stenou Lagkou		Natural	Kriti	Irakleio	Malevizi	Gonies	24.933807754	35.278308996	894	Location known	Nathenas 2006|Paragamian 1992b	901|924	GR4330005 - Oros Idi (Vorizia, Geranoi, Kali Madara) (Special Area of Conservation): Law 3937/2011 (OGG/Α 60/31.03.2011), Joint Ministerial Decision 50743/2017 (OGG 4432/B/15.12.17)	
420	Spilaio Chamoto Spiliari		Natural	Kriti	Irakleio	Malevizi	Kamaraki	24.926102579	35.305051452	557	Location known				
421	Spilaio Dalamourou		Natural	Kriti	Rethymno	Mylopotamos	Aloides	24.877990793	35.364130992	356	Location known				
422	Spilaio Kouroupito		Natural	Kriti	Rethymno	Mylopotamos	Aloides	24.854587319	35.37694961	568	Location known				
423	Varathro Arapi Trypa		Natural	Kriti	Chania	Apokoronas	Sellia	24.24118239	35.389722935	390	Location known	Paragamian 1992r	940		
424	Varathro Kaoudi Tafkos		Natural	Kriti	Rethymno	Apokoronas	Asi Gonia	24.272449	35.289775		Unknown exact location				
425	Varathro Katerianos Tafkos		Natural	Kriti	Rethymno	Mylopotamos	Kateriana	24.822547159	35.317912061	463	Location known				
426	Varathro Kryoneriou		Natural	Kriti	Rethymno	Mylopotamos	Kryoneri	24.853542168	35.331164947	375	Location known				
427	Varathro Maratholakkou		Natural	Kriti	Irakleio	Minoa Pediadas	Liliano	25.341765739	35.183423125	445	Location known				
428	Varathro Megalos Tafkos		Natural	Kriti	Irakleio	Malevizi	Marathos	24.977423093	35.34511996	430	Location known				
429	Varathro Rikomaschalo		Natural	Kriti	Irakleio	Malevizi	Gonies	24.928128542	35.286037732	758	Location known	Paragamian 1992b	924	GR4330005 - Oros Idi (Vorizia, Geranoi, Kali Madara) (Special Area of Conservation): Law 3937/2011 (OGG/Α 60/31.03.2011), Joint Ministerial Decision 50743/2017 (OGG 4432/B/15.12.17)	
430	Varathro Skararolithos		Natural	Kriti	Irakleio	Malevizi	Gonies	24.939944711	35.275049246	874	Location known	Paragamian 1992c	925	GR4330005 - Oros Idi (Vorizia, Geranoi, Kali Madara) (Special Area of Conservation): Law 3937/2011 (OGG/Α 60/31.03.2011), Joint Ministerial Decision 50743/2017 (OGG 4432/B/15.12.17)	
431	Varathro sta Kakalonia		Natural	Kriti	Rethymno	Mylopotamos	Axos	24.844461713	35.312258876	419	Location known	Paragamian 1992k	933		
432	Varathro Stou Diakoumou ti Riza		Natural	Kriti	Rethymno	Amari	Platanos	24.768775	35.156484		Unknown exact location				
433	Varathro Stou Tafkou to Lakki		Natural	Kriti	Rethymno	Mylopotamos	Kalyvos	24.796949	35.31501		Unknown exact location				
434	Varathro Tafkos Myristis		Natural	Kriti	Rethymno	Anogeia	Anogeia	24.885174095	35.282756546	812	Location known			GR4330005 - Oros Idi (Vorizia, Geranoi, Kali Madara) (Special Area of Conservation): Law 3937/2011 (OGG/Α 60/31.03.2011), Joint Ministerial Decision 50743/2017 (OGG 4432/B/15.12.17)	
435	Varathro Tafkos sti Gonia		Natural	Kriti	Rethymno	Mylopotamos	Aloides	24.879392337	35.368038991	358	Location known				
436	Varathro Tafkos stin Pode Faranga		Natural	Kriti	Rethymno	Amari	Kouroutes	24.743193353	35.187885059	563	Location known				
437	Varathro Tafkos sto Xepatomeno Aloni		Natural	Kriti	Rethymno	Anogeia	Anogeia	24.884504859	35.284304733	787	Location known				
438	Varathro Xylouri Tafkos		Natural	Kriti	Rethymno	Anogeia	Anogeia	24.885505661	35.280915527	843	Location known			GR4330005 - Oros Idi (Vorizia, Geranoi, Kali Madara) (Special Area of Conservation): Law 3937/2011 (OGG/Α 60/31.03.2011), Joint Ministerial Decision 50743/2017 (OGG 4432/B/15.12.17)	
439	Anonymo Spilaio Kato Grammatikou		Natural	Kentriki Makedonia	Pella	Edessa	Kato Grammatiko	21.884493	40.745593	700	Unknown exact location				
440	Spilaio Omorfi Spilia		Natural	Ipeiros	Trikala	Amfilochia	Chalkiopoulo	21.358131	38.997333	1243	Unknown exact location	Petrocheilos 1957c	969	K301 - Kanala (Valtou) [Wildlife Refuge]: OGG 700/Β/1980|GR2110006 - Koilada Acheloou and Ori Valtou (Special Protection Area): Law 3937/2011 (OGG/Α 60/31.03.2011), Joint Ministerial Decision 50743/2017 (OGG 4432/B/15.12.17)	
441	Cave at Parnassos mt.		Natural	Sterea Ellada	Fokida	Delfoi	Delfoi				Unknown Location				
442	Spilaio Drakospilia		Natural	Sterea Ellada	Voiotia	Distomo - Arachova - Antikyra	Arachova	22.571911149	38.546331785	1808	Location known	Santorinaios 1949b	1116	GR2410002 - Oros Parnassos (Special Protection Area): Law 3937/2011 (OGG/Α 60/31.03.2011), Joint Ministerial Decision 50743/2017 (OGG 4432/B/15.12.17)	
443	Spilaio Zervati		Natural	Ionioi Nisoi	Kefalonia	Kefalonia	Karavomylos	20.628478222	38.252437678	18	Location known	Petrocheilos 1959b	975		
444	Spilaio Peristere (ancient quarry)	Höhle bei Prines	Artificial	Kriti	Rethymno	Mylopotamos	Prines (Archaia Eleftherna)	24.66812	35.340530	270	Location known				
445	Cave in a quarry between Kassiopi and Ag. Spyridon		Natural	Ionioi Nisoi	Kerkyra	Kerkyra	Kassiopi	19.901194	39.789446		Unknown exact location				
446	Spilaio Agiou Neilou		Natural	Ipeiros	Thesprotia	Filiata	Mavroneri	20.313611	39.643889	250	Unknown exact location			GR2120009 - Ori Tsamanta, Filiaton, Farmakovouni, Megali Rachi (Special Protection Area): Law 3937/2011 (OGG/Α 60/31.03.2011), Joint Ministerial Decision 50743/2017 (OGG 4432/B/15.12.17)	
448	Spilaio Didymoteichou	Spilaio Kagiali, Spilaio Akropolis	Natural	Anatoliki Makedonia-Thraki	Evros	Didymoteicho	Didymoteicho	26.487275	41.352340	70	Location known			GR1110005 - Vouna Evrou - spilaia Didymoteichou kai Kefalovounou (Special Area of Conservation): Law 3937/2011 (OGG/Α 60/31.03.2011), Joint Ministerial Decision 50743/2017 (OGG 4432/B/15.12.17)	It is not clear whether the Chiropteran records of Niethamer (1974) and  Kock (1974) are assigned to the cave of Koufovouno or the cave of  Didymoteicho.
449	Spilaio Monis Kaloritsas		Natural	Notio Aigaio	Naxos	Naxos & Mikres Kyklades	Ano Sagkri	25.454620	37.036785	350	Location known			K494 - Profitis Ilias (Damarionou Naxou)  [Wildlife Refuge]: OGG 659/Β/1979|GR4220026 - Naxos: Ori Anathematistra, Koronos, Mavrovouni, Zas, Viglatouri (Special Protection Area): Law 3937/2011 (OGG/Α 60/31.03.2011), Joint Ministerial Decision 50743/2017 (OGG 4432/B/15.12.17)	
450	Cave near Lake Volvi	cave near Lake Beshik	Natural	Kentriki Makedonia	Thessaloniki	Volvi	NA				Unknown exact location				The location of the cave is unknown. It was cited by Hirst (1922) as the site where the parasitic mite <i>Liponyssus sternalis (=Macronyssus rhinolophi)</i> was collected from a bat: "Host: A bat found in a cave near Lake Beshik, Salonika (27.17.1918), Dr James Waterston."
451	Small anonymous cave at Lasithi plateau	"Kleine Schwinde"	Natural	Kriti	Lasithi	Oropedio Lasithiou	Tzermiado	25.467000	35.178150	820	Unknown exact location			GR4320002 - Dikti: Oropedio Lasithiou, Katharo, Selena, Krasi, Selakano, Chalasmeni Koryfi (Special Area of Conservation): Law 3937/2011 (OGG/Α 60/31.03.2011), Joint Ministerial Decision 50743/2017 (OGG 4432/B/15.12.17)	Unknown exact location at Lasithi plateau (820m a.s.l.)
452	Varathro Trypa Vroulas		Natural	Kriti	Chania	Kantanos - Selino	Seliniotikos Gyros	23.879514	35.327182	1300	Unknown exact location			GR4340008 - Lefka Ori and Paraktia Zoni (Special Area of Conservation): Law 3937/2011 (OGG/Α 60/31.03.2011), Joint Ministerial Decision 50743/2017 (OGG 4432/B/15.12.17)	
